{"type": "FeatureCollection", "features": [{"geometry": {"type": "Point", "coordinates": [1.4384578, 43.6241108]}, "type": "Feature", "id": 1973931520, "properties": {"amenity": "bicycle_rental", "capacity": "20", "name": "Theatre des Mazades", "source:date": "2012-05-30", "source": "GrandToulouse", "operator": "JCDecaux", "ref": "152", "network": "V\u00e9l\u00f4Toulouse"}}, {"geometry": {"type": "Point", "coordinates": [1.4066636, 43.5764437]}, "type": "Feature", "id": 1973931521, "properties": {"amenity": "bicycle_rental", "capacity": "20", "name": "Vauquelin", "source:date": "2012-05-30", "source": "GrandToulouse", "operator": "JCDecaux", "ref": "221", "network": "V\u00e9l\u00f4Toulouse"}}, {"geometry": {"type": "Point", "coordinates": [1.4643556, 43.5681715]}, "type": "Feature", "id": 292428290, "properties": {"amenity": "bicycle_rental", "capacity": "20", "name": "M\u00e9tro Pharmacie", "source:date": "2012-05-30", "source": "GrandToulouse", "operator": "JCDecaux", "ref": "228", "network": "V\u00e9l\u00f4Toulouse"}}, {"geometry": {"type": "Point", "coordinates": [1.4286029, 43.6080099]}, "type": "Feature", "id": 1557571075, "properties": {"amenity": "bicycle_rental", "capacity": "18", "name": "H\u00e9racl\u00e8s - B\u00e9arnais", "source:date": "2011-11-06", "source": "GrandToulouse", "operator": "JCDecaux", "ref": "86", "start_date": "2007-11-16", "network": "V\u00e9l\u00f4Toulouse"}}, {"geometry": {"type": "Point", "coordinates": [1.4301284, 43.6134548]}, "type": "Feature", "id": 920836101, "properties": {"amenity": "bicycle_rental", "capacity": "20", "name": "Embouchure -  Haedens", "source:date": "2012-05-30", "source": "GrandToulouse", "operator": "JCDecaux", "ref": "122", "network": "V\u00e9l\u00f4Toulouse"}}, {"geometry": {"type": "Point", "coordinates": [1.4394107, 43.6087914]}, "type": "Feature", "id": 1288275462, "properties": {"amenity": "bicycle_rental", "capacity": "18", "name": "Chaine", "source:date": "2012-05-30", "source": "GrandToulouse", "operator": "JCDecaux", "ref": "54", "start_date": "2007-11-16", "network": "V\u00e9l\u00f4Toulouse"}}, {"geometry": {"type": "Point", "coordinates": [1.4736203, 43.6008271]}, "type": "Feature", "id": 1332082183, "properties": {"amenity": "bicycle_rental", "capacity": "17", "name": "Castres Achiary", "source:date": "2012-05-30", "source": "GrandToulouse", "operator": "JCDecaux", "ref": "214", "network": "V\u00e9l\u00f4Toulouse"}}, {"geometry": {"type": "Point", "coordinates": [1.4734477, 43.5961893]}, "type": "Feature", "id": 1332082184, "properties": {"amenity": "bicycle_rental", "capacity": "20", "name": "Lafilaire Deltour", "source:date": "2012-05-30", "source": "GrandToulouse", "operator": "JCDecaux", "ref": "198", "network": "V\u00e9l\u00f4Toulouse"}}, {"geometry": {"type": "Point", "coordinates": [1.4455256, 43.5995442]}, "type": "Feature", "id": 470860297, "properties": {"addr:housenumber": "1", "amenity": "bicycle_rental", "capacity": "17", "network": "V\u00e9l\u00f4Toulouse", "source:date": "2012-05-30", "source": "GrandToulouse", "operator": "JCDecaux", "addr:street": "Rue des Tourneurs", "ref": "25", "start_date": "2007-11-16", "name": "Place Rouaix"}}, {"geometry": {"type": "Point", "coordinates": [1.4485455, 43.5828948]}, "type": "Feature", "id": 426931722, "properties": {"amenity": "bicycle_rental", "capacity": "18", "name": "URSS Recollets", "source:date": "2012-05-30", "source": "GrandToulouse", "operator": "JCDecaux", "ref": "157", "network": "V\u00e9l\u00f4Toulouse"}}, {"geometry": {"type": "Point", "coordinates": [1.4448838, 43.6003978]}, "type": "Feature", "id": 470860299, "properties": {"addr:housenumber": "15", "amenity": "bicycle_rental", "capacity": "18", "network": "V\u00e9l\u00f4Toulouse", "source:date": "2012-05-30", "source": "GrandToulouse", "operator": "JCDecaux", "addr:street": "Place Etienne Esquirol", "ref": "10", "start_date": "2007-11-16", "name": "Place Esquirol"}}, {"geometry": {"type": "Point", "coordinates": [1.441354, 43.5996733]}, "type": "Feature", "id": 470860300, "properties": {"amenity": "bicycle_rental", "capacity": "18", "name": "Couteliers -  Metz", "source:date": "2012-05-30", "source": "GrandToulouse", "operator": "JCDecaux", "ref": "49", "network": "V\u00e9l\u00f4Toulouse"}}, {"geometry": {"type": "Point", "coordinates": [1.440856, 43.5944806]}, "type": "Feature", "id": 470860301, "properties": {"amenity": "bicycle_rental", "capacity": "23", "name": "Garonnette", "source:date": "2012-05-30", "source": "GrandToulouse", "operator": "JCDecaux", "ref": "50", "start_date": "2007-11-16", "network": "V\u00e9l\u00f4Toulouse"}}, {"geometry": {"type": "Point", "coordinates": [1.445386, 43.5952511]}, "type": "Feature", "id": 470860303, "properties": {"addr:housenumber": "12", "amenity": "bicycle_rental", "capacity": "25", "network": "V\u00e9l\u00f4Toulouse", "source:date": "2012-05-30", "source": "GrandToulouse", "operator": "JCDecaux", "addr:street": "Rue du Languedoc", "ref": "47", "start_date": "2007-11-16", "name": "Nazareth -  Languedoc"}}, {"geometry": {"type": "Point", "coordinates": [1.446136, 43.6095699]}, "type": "Feature", "id": 920836112, "properties": {"addr:housenumber": "2", "amenity": "bicycle_rental", "capacity": "17", "addr:city": "Toulouse", "source": "GrandToulouse", "source:date": "2012-05-30", "network": "V\u00e9l\u00f4Toulouse", "operator": "JCDecaux", "addr:street": "Petite rue Saint-Lazare", "ref": "34", "name": "Saint Lazare"}}, {"geometry": {"type": "Point", "coordinates": [1.4440832, 43.594723]}, "type": "Feature", "id": 470860305, "properties": {"addr:housenumber": "18", "amenity": "bicycle_rental", "capacity": "22", "network": "V\u00e9l\u00f4Toulouse", "source:date": "2012-05-30", "source": "GrandToulouse", "operator": "JCDecaux", "addr:street": "Place du Salin", "ref": "48", "start_date": "2007-11-16", "name": "Place du Salin"}}, {"geometry": {"type": "Point", "coordinates": [1.4452773, 43.5905812]}, "type": "Feature", "id": 471334423, "properties": {"addr:housenumber": "139", "amenity": "bicycle_rental", "capacity": "20", "network": "V\u00e9l\u00f4Toulouse", "source:date": "2012-05-30", "source": "GrandToulouse", "operator": "JCDecaux", "addr:street": "Grande rue Saint-Michel", "ref": "103", "name": "Saint Michel - Sainte Catherine"}}, {"geometry": {"type": "Point", "coordinates": [1.4563432, 43.5692084]}, "type": "Feature", "id": 803363352, "properties": {"amenity": "bicycle_rental", "capacity": "18", "name": "Narbonne Mirouse", "source:date": "2012-05-30", "source": "GrandToulouse", "operator": "JCDecaux", "ref": "232", "network": "V\u00e9l\u00f4Toulouse"}}, {"geometry": {"type": "Point", "coordinates": [1.4829408, 43.5860888]}, "type": "Feature", "id": 1973931439, "properties": {"amenity": "bicycle_rental", "capacity": "18", "name": "Firmis", "source:date": "2012-05-30", "source": "GrandToulouse", "operator": "JCDecaux", "ref": "210", "network": "V\u00e9l\u00f4Toulouse"}}, {"geometry": {"type": "Point", "coordinates": [1.4307206, 43.6068755]}, "type": "Feature", "id": 1557571100, "properties": {"amenity": "bicycle_rental", "capacity": "20", "name": "Leclerc -  Barcelone", "source:date": "2012-05-30", "source": "GrandToulouse", "operator": "JCDecaux", "ref": "85", "network": "V\u00e9l\u00f4Toulouse"}}, {"geometry": {"type": "Point", "coordinates": [1.4288996, 43.5975714]}, "type": "Feature", "id": 346347038, "properties": {"addr:housenumber": "12", "amenity": "bicycle_rental", "capacity": "17", "network": "V\u00e9l\u00f4Toulouse", "source:date": "2012-05-30", "source": "GrandToulouse", "operator": "JCDecaux", "addr:street": "Avenue Etienne Billi\u00e8res", "ref": "105", "name": "Billieres  -  Champetre"}}, {"geometry": {"type": "Point", "coordinates": [1.4492025, 43.5809195]}, "type": "Feature", "id": 364151841, "properties": {"amenity": "bicycle_rental", "capacity": "20", "name": "URSS Saint Thomas D Aquin", "source:date": "2012-05-30", "source": "GrandToulouse", "operator": "JCDecaux", "ref": "158", "network": "V\u00e9l\u00f4Toulouse"}}, {"geometry": {"type": "Point", "coordinates": [1.4201779, 43.5979474]}, "type": "Feature", "id": 1293125699, "properties": {"amenity": "bicycle_rental", "capacity": "20", "name": "Barri\u00e8re de Bayonne", "source:date": "2012-05-30", "source": "GrandToulouse", "operator": "JCDecaux", "ref": "138", "network": "V\u00e9l\u00f4Toulouse"}}, {"geometry": {"type": "Point", "coordinates": [1.4072479, 43.6041917]}, "type": "Feature", "id": 1293125700, "properties": {"amenity": "bicycle_rental", "capacity": "17", "name": "Fontaines Casselardit", "source:date": "2012-05-30", "source": "GrandToulouse", "operator": "JCDecaux", "ref": "226", "network": "V\u00e9l\u00f4Toulouse"}}, {"geometry": {"type": "Point", "coordinates": [1.4662618, 43.629657]}, "type": "Feature", "id": 1343795633, "properties": {"amenity": "bicycle_rental", "capacity": "18", "name": "Amouroux Saint Tropez", "source:date": "2012-05-30", "source": "GrandToulouse", "operator": "JCDecaux", "ref": "217", "network": "V\u00e9l\u00f4Toulouse"}}, {"geometry": {"type": "Point", "coordinates": [1.4216314, 43.6159858]}, "type": "Feature", "id": 365624361, "properties": {"amenity": "bicycle_rental", "capacity": "20", "name": "Suisse Lausanne", "source:date": "2012-05-30", "source": "GrandToulouse", "operator": "JCDecaux", "ref": "144", "network": "V\u00e9l\u00f4Toulouse"}}, {"geometry": {"type": "Point", "coordinates": [1.4557818, 43.5969933]}, "type": "Feature", "id": 471334442, "properties": {"addr:housenumber": "16", "amenity": "bicycle_rental", "capacity": "20", "network": "V\u00e9l\u00f4Toulouse", "operator": "JCDecaux", "addr:street": "All\u00e9es Paul Sabatier", "ref": "100", "name": "Port Saint-Sauveur"}}, {"geometry": {"type": "Point", "coordinates": [1.4360829, 43.6034949]}, "type": "Feature", "id": 1557571115, "properties": {"amenity": "bicycle_rental", "capacity": "22", "name": "Place Saint Pierre", "source:date": "2012-05-30", "source": "GrandToulouse", "operator": "JCDecaux", "ref": "28", "start_date": "2007-11-16", "network": "V\u00e9l\u00f4Toulouse"}}, {"geometry": {"type": "Point", "coordinates": [1.4447395, 43.6074289]}, "type": "Feature", "id": 890451500, "properties": {"amenity": "bicycle_rental", "capacity": "20", "name": "Perigord", "source:date": "2012-05-30", "source": "GrandToulouse", "operator": "JCDecaux", "ref": "14", "start_date": "2007-11-16", "network": "V\u00e9l\u00f4Toulouse"}}, {"geometry": {"type": "Point", "coordinates": [1.4529322, 43.5937423]}, "type": "Feature", "id": 471334445, "properties": {"addr:housenumber": "18", "amenity": "bicycle_rental", "capacity": "20", "network": "V\u00e9l\u00f4Toulouse", "source:date": "2012-05-30", "source": "GrandToulouse", "operator": "JCDecaux", "addr:street": "All\u00e9e Fr\u00e9d\u00e9ric Mistral", "ref": "102", "name": "Mistral - Fleurance"}}, {"geometry": {"type": "Point", "coordinates": [1.4418359, 43.5796873]}, "type": "Feature", "id": 920836144, "properties": {"addr:housenumber": "38", "amenity": "bicycle_rental", "capacity": "20", "addr:city": "Toulouse", "source": "GrandToulouse", "source:date": "2012-05-30", "network": "V\u00e9l\u00f4Toulouse", "operator": "JCDecaux", "addr:street": "Avenue Jean Moulin", "ref": "156", "name": "M\u00e9tro Empalot"}}, {"geometry": {"type": "Point", "coordinates": [1.4469449, 43.6096563]}, "type": "Feature", "id": 890433073, "properties": {"amenity": "bicycle_rental", "capacity": "20", "name": "Place Jeanne D'arc", "source:date": "2012-05-30", "source": "GrandToulouse", "operator": "JCDecaux", "ref": "35", "start_date": "2007-11-16", "network": "V\u00e9l\u00f4Toulouse"}}, {"geometry": {"type": "Point", "coordinates": [1.4514066, 43.6124074]}, "type": "Feature", "id": 890433075, "properties": {"amenity": "bicycle_rental", "capacity": "20", "name": "Raymond IV", "source:date": "2012-05-30", "source": "GrandToulouse", "operator": "JCDecaux", "ref": "97", "start_date": "2007-11-16", "network": "V\u00e9l\u00f4Toulouse"}}, {"geometry": {"type": "Point", "coordinates": [1.4522922, 43.6110343]}, "type": "Feature", "id": 890433076, "properties": {"amenity": "bicycle_rental"}}, {"geometry": {"type": "Point", "coordinates": [1.4185949, 43.5916701]}, "type": "Feature", "id": 1973931529, "properties": {"amenity": "bicycle_rental", "capacity": "18", "name": "\u00c9mile Male", "source:date": "2012-05-30", "source": "GrandToulouse", "operator": "JCDecaux", "ref": "140", "network": "V\u00e9l\u00f4Toulouse"}}, {"geometry": {"type": "Point", "coordinates": [1.4350553, 43.61526]}, "type": "Feature", "id": 1973931444, "properties": {"amenity": "bicycle_rental", "capacity": "20", "name": "H\u00f4tel de D\u00e9partement", "source:date": "2012-05-30", "source": "GrandToulouse", "operator": "JCDecaux", "ref": "109", "network": "V\u00e9l\u00f4Toulouse"}}, {"geometry": {"type": "Point", "coordinates": [1.4455732, 43.6032794]}, "type": "Feature", "id": 470536763, "properties": {"amenity": "bicycle_rental", "capacity": "19", "network": "V\u00e9l\u00f4Toulouse", "name": "Pomme", "source:date": "2012-05-30", "source": "GrandToulouse", "operator": "JCDecaux", "addr:street": "Rue de la Pomme", "ref": "3", "start_date": "2007-11-16", "addr:city": "Toulouse"}}, {"geometry": {"type": "Point", "coordinates": [1.4323465, 43.6305222]}, "type": "Feature", "id": 1973931530, "properties": {"amenity": "bicycle_rental", "capacity": "18", "name": "\u00c9tats Unis  Charlas", "source:date": "2012-05-30", "source": "GrandToulouse", "operator": "JCDecaux", "ref": "253", "network": "V\u00e9l\u00f4Toulouse"}}, {"geometry": {"type": "Point", "coordinates": [1.4433115, 43.5837981]}, "type": "Feature", "id": 920836160, "properties": {"addr:housenumber": "34", "amenity": "bicycle_rental", "capacity": "20", "addr:city": "Toulouse", "source": "GrandToulouse", "source:date": "2012-05-30", "network": "V\u00e9l\u00f4Toulouse", "operator": "JCDecaux", "addr:street": "Boulevard des R\u00e9collets", "ref": "155", "name": "Recollets"}}, {"geometry": {"type": "Point", "coordinates": [1.4112109, 43.6145657]}, "type": "Feature", "id": 1557571137, "properties": {"amenity": "bicycle_rental", "capacity": "18", "name": "Puccini Blagnac", "source:date": "2011-11-06", "source": "GrandToulouse", "operator": "JCDecaux", "ref": "219", "network": "V\u00e9l\u00f4Toulouse"}}, {"geometry": {"type": "Point", "coordinates": [1.4203448, 43.6008413]}, "type": "Feature", "id": 494092043, "properties": {"amenity": "bicycle_rental", "capacity": "20", "name": "Brunhes Fontaines", "source:date": "2012-05-30", "source": "GrandToulouse", "operator": "JCDecaux", "ref": "137", "network": "V\u00e9l\u00f4Toulouse"}}, {"geometry": {"type": "Point", "coordinates": [1.4435634, 43.6145865]}, "type": "Feature", "id": 333174852, "properties": {"amenity": "bicycle_rental", "capacity": "15", "name": "Printemps - Ingres", "source:date": "2012-05-30", "source": "GrandToulouse", "operator": "JCDecaux", "ref": "93", "network": "V\u00e9l\u00f4Toulouse"}}, {"geometry": {"type": "Point", "coordinates": [1.4083883, 43.6170089]}, "type": "Feature", "id": 1973931446, "properties": {"amenity": "bicycle_rental", "capacity": "20", "name": "Job Blagnac", "source:date": "2012-05-30", "source": "GrandToulouse", "operator": "JCDecaux", "ref": "240", "network": "V\u00e9l\u00f4Toulouse"}}, {"geometry": {"type": "Point", "coordinates": [1.4147688, 43.6020262]}, "type": "Feature", "id": 1293125702, "properties": {"amenity": "bicycle_rental", "capacity": "20", "name": "Fontaines Milhes", "source:date": "2012-05-30", "source": "GrandToulouse", "operator": "JCDecaux", "ref": "136", "network": "V\u00e9l\u00f4Toulouse"}}, {"geometry": {"type": "Point", "coordinates": [1.4145535, 43.5930536]}, "type": "Feature", "id": 1973931532, "properties": {"amenity": "bicycle_rental", "capacity": "20", "network": "V\u00e9l\u00f4Toulouse", "fixme": "Station pas en service", "source:date": "2012-05-30", "source": "GrandToulouse", "operator": "JCDecaux", "ref": "250", "name": "11 Novembre 1918"}}, {"geometry": {"type": "Point", "coordinates": [1.4750633, 43.5859063]}, "type": "Feature", "id": 365726282, "properties": {"amenity": "bicycle_rental", "capacity": "17", "name": "Cottages Rieux", "source:date": "2012-05-30", "source": "GrandToulouse", "operator": "JCDecaux", "ref": "205", "network": "V\u00e9l\u00f4Toulouse"}}, {"geometry": {"type": "Point", "coordinates": [1.4502352, 43.5786083]}, "type": "Feature", "id": 1973931447, "properties": {"amenity": "bicycle_rental", "capacity": "20", "name": "Jules Julien Devic", "source:date": "2012-05-30", "source": "GrandToulouse", "operator": "JCDecaux", "ref": "159", "network": "V\u00e9l\u00f4Toulouse"}}, {"geometry": {"type": "Point", "coordinates": [1.4548634, 43.5802942]}, "type": "Feature", "id": 366579797, "properties": {"amenity": "bicycle_rental", "capacity": "17", "name": "Italie", "source:date": "2012-05-30", "source": "GrandToulouse", "operator": "JCDecaux", "ref": "162", "network": "V\u00e9l\u00f4Toulouse"}}, {"geometry": {"type": "Point", "coordinates": [1.4664588, 43.6410367]}, "type": "Feature", "id": 1403131990, "properties": {"amenity": "bicycle_rental", "capacity": "20", "name": "Albi Pelet", "source:date": "2012-05-30", "source": "GrandToulouse", "operator": "JCDecaux", "ref": "171", "network": "V\u00e9l\u00f4Toulouse"}}, {"geometry": {"type": "Point", "coordinates": [1.4362371, 43.5966674]}, "type": "Feature", "id": 1973931449, "properties": {"amenity": "bicycle_rental", "capacity": "18", "name": "Laganne - Teinturiers", "source:date": "2012-05-30", "source": "GrandToulouse", "operator": "JCDecaux", "ref": "74", "network": "V\u00e9l\u00f4Toulouse"}}, {"geometry": {"type": "Point", "coordinates": [1.4283637, 43.6156026]}, "type": "Feature", "id": 1973931512, "properties": {"amenity": "bicycle_rental", "capacity": "20", "name": "Sang de Serp Dagnaux", "source:date": "2012-05-30", "source": "GrandToulouse", "operator": "JCDecaux", "ref": "146", "network": "V\u00e9l\u00f4Toulouse"}}, {"geometry": {"type": "Point", "coordinates": [1.4611583, 43.6428899]}, "type": "Feature", "id": 599299674, "properties": {"amenity": "bicycle_rental", "capacity": "20", "name": "Rpt Point Lafforgue", "source:date": "2012-05-30", "source": "GrandToulouse", "operator": "JCDecaux", "ref": "172", "network": "V\u00e9l\u00f4Toulouse"}}, {"geometry": {"type": "Point", "coordinates": [1.4083883, 43.6170089]}, "type": "Feature", "id": 1557571087, "properties": {"amenity": "bicycle_rental", "capacity": "20", "name": "Job Blagnac", "source:date": "2011-11-06", "source": "GrandToulouse", "operator": "JCDecaux", "ref": "240", "network": "V\u00e9l\u00f4Toulouse"}}, {"geometry": {"type": "Point", "coordinates": [1.4280228, 43.6056429]}, "type": "Feature", "id": 1557571166, "properties": {"amenity": "bicycle_rental", "capacity": "16", "name": "Sejourne - Catalans", "source:date": "2012-05-30", "source": "GrandToulouse", "operator": "JCDecaux", "ref": "82", "start_date": "2007-11-16", "network": "V\u00e9l\u00f4Toulouse"}}, {"geometry": {"type": "Point", "coordinates": [1.4587217, 43.6231014]}, "type": "Feature", "id": 1973931417, "properties": {"amenity": "bicycle_rental", "capacity": "17", "name": "Bonnefoy Lemaitre", "source:date": "2012-05-30", "source": "GrandToulouse", "operator": "JCDecaux", "ref": "135", "network": "V\u00e9l\u00f4Toulouse"}}, {"geometry": {"type": "Point", "coordinates": [1.4154801, 43.5949355]}, "type": "Feature", "id": 308978534, "properties": {"operator": "V\u00e9l\u00f4Toulouse", "amenity": "bicycle_rental", "ref": "193", "name": "Lombez / Petite Vitesse"}}, {"geometry": {"type": "Point", "coordinates": [1.4294109, 43.5996081]}, "type": "Feature", "id": 308978791, "properties": {"amenity": "bicycle_rental", "capacity": "23", "name": "Fitte - Varsi", "source:date": "2012-05-30", "source": "GrandToulouse", "operator": "JCDecaux", "ref": "80", "start_date": "2007-11-16", "network": "V\u00e9l\u00f4Toulouse"}}, {"geometry": {"type": "Point", "coordinates": [1.4514299, 43.6139364]}, "type": "Feature", "id": 441152104, "properties": {"amenity": "bicycle_rental", "capacity": "20", "name": "Semard -  Gare Routi\u00e8re", "source:date": "2012-05-30", "source": "GrandToulouse", "operator": "JCDecaux", "ref": "94", "network": "V\u00e9l\u00f4Toulouse"}}, {"geometry": {"type": "Point", "coordinates": [1.4650905, 43.5940543]}, "type": "Feature", "id": 1973931453, "properties": {"amenity": "bicycle_rental", "capacity": "18", "name": "Leygue Rieux", "source:date": "2012-05-30", "source": "GrandToulouse", "operator": "JCDecaux", "ref": "206", "network": "V\u00e9l\u00f4Toulouse"}}, {"geometry": {"type": "Point", "coordinates": [1.4296984, 43.5996727]}, "type": "Feature", "id": 308978792, "properties": {"amenity": "bicycle_rental", "capacity": "33", "name": "Jardin Raymond VI", "source:date": "2012-05-30", "source": "GrandToulouse", "operator": "JCDecaux", "ref": "81", "network": "V\u00e9l\u00f4Toulouse"}}, {"geometry": {"type": "Point", "coordinates": [1.450587, 43.5884761]}, "type": "Feature", "id": 1544973430, "properties": {"amenity": "bicycle_rental", "capacity": "17", "name": "Place du Busca", "source:date": "2012-05-30", "source": "GrandToulouse", "operator": "JCDecaux", "ref": "118", "network": "V\u00e9l\u00f4Toulouse"}}, {"geometry": {"type": "Point", "coordinates": [1.4429737, 43.6102744]}, "type": "Feature", "id": 1098346857, "properties": {"amenity": "bicycle_rental", "capacity": "26", "name": "Lascrosses -  Place Arnaud Bernard", "source:date": "2012-05-30", "source": "GrandToulouse", "operator": "JCDecaux", "ref": "90", "start_date": "2007-11-16", "network": "V\u00e9l\u00f4Toulouse"}}, {"geometry": {"type": "Point", "coordinates": [1.4454386, 43.6043098]}, "type": "Feature", "id": 471322232, "properties": {"addr:housenumber": "12", "amenity": "bicycle_rental", "capacity": "20", "addr:city": "Toulouse", "source": "GrandToulouse", "source:date": "2012-05-30", "network": "V\u00e9l\u00f4Toulouse", "operator": "JCDecaux", "addr:street": "Rue du Poids de l'huile", "ref": "1", "start_date": "2007-11-16", "name": "Poids de L'huile"}}, {"geometry": {"type": "Point", "coordinates": [1.4429919, 43.6152917]}, "type": "Feature", "id": 333173882, "properties": {"amenity": "bicycle_rental", "capacity": "22", "name": "Minimes -  Passerelle", "source:date": "2012-05-30", "source": "GrandToulouse", "operator": "JCDecaux", "ref": "111", "network": "V\u00e9l\u00f4Toulouse"}}, {"geometry": {"type": "Point", "coordinates": [1.4422952, 43.6051249]}, "type": "Feature", "id": 1973931455, "properties": {"amenity": "bicycle_rental", "capacity": "20", "name": "Lois", "source:date": "2012-05-30", "source": "GrandToulouse", "operator": "JCDecaux", "ref": "6", "start_date": "2007-11-16", "network": "V\u00e9l\u00f4Toulouse"}}, {"geometry": {"type": "Point", "coordinates": [1.4453882, 43.5973835]}, "type": "Feature", "id": 470252394, "properties": {"addr:housenumber": "1", "amenity": "bicycle_rental", "capacity": "20", "addr:city": "Toulouse", "source": "GrandToulouse", "source:date": "2012-05-30", "network": "V\u00e9l\u00f4Toulouse", "operator": "JCDecaux", "addr:street": "Place des Carmes", "ref": "46", "start_date": "2007-11-16", "name": "Place des Carmes"}}, {"geometry": {"type": "Point", "coordinates": [1.4453059, 43.5929644]}, "type": "Feature", "id": 1973931442, "properties": {"amenity": "bicycle_rental", "capacity": "18", "name": "Guesde Trente-Six Ponts", "source:date": "2012-05-30", "source": "GrandToulouse", "operator": "JCDecaux", "ref": "68", "network": "V\u00e9l\u00f4Toulouse"}}, {"geometry": {"type": "Point", "coordinates": [1.436933, 43.6086882]}, "type": "Feature", "id": 321798273, "properties": {"amenity": "bicycle_rental", "capacity": "24", "name": "Place Saint Julien", "source:date": "2012-05-30", "source": "GrandToulouse", "operator": "JCDecaux", "ref": "53", "start_date": "2007-11-16", "network": "V\u00e9l\u00f4Toulouse"}}, {"geometry": {"type": "Point", "coordinates": [1.4514969, 43.6280996]}, "type": "Feature", "id": 1973931457, "properties": {"amenity": "bicycle_rental", "capacity": "17", "name": "Louin Raynal", "source:date": "2012-05-30", "source": "GrandToulouse", "operator": "JCDecaux", "ref": "234", "network": "V\u00e9l\u00f4Toulouse"}}, {"geometry": {"type": "Point", "coordinates": [1.4642898, 43.6355902]}, "type": "Feature", "id": 1400769164, "properties": {"amenity": "bicycle_rental", "capacity": "17", "name": "Croix Daurade Biblioth\u00e8que", "source:date": "2012-05-30", "source": "GrandToulouse", "operator": "JCDecaux", "ref": "170", "network": "V\u00e9l\u00f4Toulouse"}}, {"geometry": {"type": "Point", "coordinates": [1.4601363, 43.5798015]}, "type": "Feature", "id": 664027789, "properties": {"amenity": "bicycle_rental", "capacity": "20", "name": "M\u00e9tro Saouzelong", "source:date": "2012-05-30", "source": "GrandToulouse", "operator": "JCDecaux", "ref": "164", "network": "V\u00e9l\u00f4Toulouse"}}, {"geometry": {"type": "Point", "coordinates": [1.4537144, 43.6045649]}, "type": "Feature", "id": 630658702, "properties": {"amenity": "bicycle_rental", "capacity": "17", "name": "Colombette", "source:date": "2012-05-30", "source": "GrandToulouse", "operator": "JCDecaux", "ref": "40", "network": "V\u00e9l\u00f4Toulouse"}}, {"geometry": {"type": "Point", "coordinates": [1.4580553, 43.6068447]}, "type": "Feature", "id": 630658703, "properties": {"amenity": "bicycle_rental", "capacity": "18", "name": "G\u00e9n\u00e9ral Compans", "source:date": "2012-05-30", "source": "GrandToulouse", "operator": "JCDecaux", "ref": "176", "network": "V\u00e9l\u00f4Toulouse"}}, {"geometry": {"type": "Point", "coordinates": [1.4549184, 43.6062072]}, "type": "Feature", "id": 630658704, "properties": {"amenity": "bicycle_rental", "capacity": "18", "name": "Peri -  Mercadier", "source:date": "2012-05-30", "source": "GrandToulouse", "operator": "JCDecaux", "ref": "64", "network": "V\u00e9l\u00f4Toulouse"}}, {"geometry": {"type": "Point", "coordinates": [1.4350512, 43.5985608]}, "type": "Feature", "id": 333175958, "properties": {"amenity": "bicycle_rental", "capacity": "20", "name": "R\u00e9publique - Place Olivier", "source:date": "2012-05-30", "source": "GrandToulouse", "operator": "JCDecaux", "ref": "76", "network": "V\u00e9l\u00f4Toulouse"}}, {"geometry": {"type": "Point", "coordinates": [1.4789126, 43.5895956]}, "type": "Feature", "id": 365709464, "properties": {"amenity": "bicycle_rental", "capacity": "17", "name": "Baroux Darasse", "source:date": "2012-05-30", "source": "GrandToulouse", "operator": "JCDecaux", "ref": "209", "network": "V\u00e9l\u00f4Toulouse"}}, {"geometry": {"type": "Point", "coordinates": [1.4481293, 43.6032162]}, "type": "Feature", "id": 1973931436, "properties": {"amenity": "bicycle_rental", "capacity": "24", "name": "Espace Saint Georges", "source:date": "2012-05-30", "source": "GrandToulouse", "operator": "JCDecaux", "ref": "8", "start_date": "2007-11-16", "network": "V\u00e9l\u00f4Toulouse"}}, {"geometry": {"type": "Point", "coordinates": [1.4631106, 43.5607323]}, "type": "Feature", "id": 765334173, "properties": {"amenity": "bicycle_rental", "capacity": "20", "name": "M\u00e9tro UPS", "source:date": "2012-05-30", "source": "GrandToulouse", "operator": "JCDecaux", "ref": "227", "network": "V\u00e9l\u00f4Toulouse"}}, {"geometry": {"type": "Point", "coordinates": [1.4692948, 43.6272417]}, "type": "Feature", "id": 1973931461, "properties": {"amenity": "bicycle_rental", "capacity": "18", "name": "Michoun Lippman", "source:date": "2012-05-30", "source": "GrandToulouse", "operator": "JCDecaux", "ref": "184", "network": "V\u00e9l\u00f4Toulouse"}}, {"geometry": {"type": "Point", "coordinates": [1.424331, 43.5931757]}, "type": "Feature", "id": 426908321, "properties": {"amenity": "bicycle_rental", "capacity": "18", "name": "Cugnaux Gravette", "source:date": "2012-05-30", "source": "GrandToulouse", "operator": "JCDecaux", "ref": "183", "network": "V\u00e9l\u00f4Toulouse"}}, {"geometry": {"type": "Point", "coordinates": [1.4466693, 43.6078577]}, "type": "Feature", "id": 1973931515, "properties": {"amenity": "bicycle_rental", "capacity": "21", "name": "Strasbourg  -  Bayard", "source:date": "2012-05-30", "source": "GrandToulouse", "operator": "JCDecaux", "ref": "16", "start_date": "2007-11-16", "network": "V\u00e9l\u00f4Toulouse"}}, {"geometry": {"type": "Point", "coordinates": [1.4300442, 43.5935261]}, "type": "Feature", "id": 426908323, "properties": {"amenity": "bicycle_rental", "capacity": "18", "name": "Sainte Lucie", "source:date": "2012-05-30", "source": "GrandToulouse", "operator": "JCDecaux", "ref": "37", "network": "V\u00e9l\u00f4Toulouse"}}, {"geometry": {"type": "Point", "coordinates": [1.4344504, 43.6229744]}, "type": "Feature", "id": 1973931462, "properties": {"amenity": "bicycle_rental", "capacity": "15", "name": "Minimes - Baque", "source:date": "2012-05-30", "source": "GrandToulouse", "operator": "JCDecaux", "ref": "132", "network": "V\u00e9l\u00f4Toulouse"}}, {"geometry": {"type": "Point", "coordinates": [1.4687291, 43.6193413]}, "type": "Feature", "id": 925612711, "properties": {"amenity": "bicycle_rental", "capacity": "20", "name": "Place de La Roseraie", "source:date": "2012-05-30", "source": "GrandToulouse", "operator": "JCDecaux", "ref": "178", "network": "V\u00e9l\u00f4Toulouse"}}, {"geometry": {"type": "Point", "coordinates": [1.4367155, 43.6183476]}, "type": "Feature", "id": 1973931463, "properties": {"amenity": "bicycle_rental", "capacity": "20", "name": "Minimes - Marche Au Cochons", "source:date": "2012-05-30", "source": "GrandToulouse", "operator": "JCDecaux", "ref": "133", "network": "V\u00e9l\u00f4Toulouse"}}, {"geometry": {"type": "Point", "coordinates": [1.4519373, 43.6022828]}, "type": "Feature", "id": 1832836269, "properties": {"amenity": "bicycle_rental", "capacity": "20", "name": "24 BD LAZARE CARNOT", "operator": "JCDecaux", "ref": "22", "network": "V\u00e9l\u00f4Toulouse"}}, {"geometry": {"type": "Point", "coordinates": [1.4753044, 43.5664686]}, "type": "Feature", "id": 410088111, "properties": {"amenity": "bicycle_rental", "capacity": "20", "name": "Belin Sup Aero", "source:date": "2012-05-30", "source": "GrandToulouse", "operator": "JCDecaux", "ref": "224", "network": "V\u00e9l\u00f4Toulouse"}}, {"geometry": {"type": "Point", "coordinates": [1.478324, 43.5650775]}, "type": "Feature", "id": 410088112, "properties": {"amenity": "bicycle_rental", "capacity": "20", "name": "Belin ENAC", "source:date": "2012-05-30", "source": "GrandToulouse", "operator": "JCDecaux", "ref": "223", "network": "V\u00e9l\u00f4Toulouse"}}, {"geometry": {"type": "Point", "coordinates": [1.454248, 43.6169439]}, "type": "Feature", "id": 314255025, "properties": {"amenity": "bicycle_rental", "capacity": "20", "name": "\u00c9cole Bonnefoy", "source:date": "2012-05-30", "source": "GrandToulouse", "operator": "JCDecaux", "ref": "126", "network": "V\u00e9l\u00f4Toulouse"}}, {"geometry": {"type": "Point", "coordinates": [1.4200806, 43.6038189]}, "type": "Feature", "id": 1973931522, "properties": {"amenity": "bicycle_rental", "capacity": "20", "name": "Wagner Brunhes", "source:date": "2012-05-30", "source": "GrandToulouse", "operator": "JCDecaux", "ref": "246", "network": "V\u00e9l\u00f4Toulouse"}}, {"geometry": {"type": "Point", "coordinates": [1.4502596, 43.6041396]}, "type": "Feature", "id": 775992499, "properties": {"amenity": "bicycle_rental", "capacity": "22", "name": "Carnot - Labeda", "source:date": "2012-05-30", "source": "GrandToulouse", "operator": "JCDecaux", "ref": "21", "start_date": "2007-11-16", "network": "V\u00e9l\u00f4Toulouse"}}, {"geometry": {"type": "Point", "coordinates": [1.4317489, 43.6327222]}, "type": "Feature", "id": 1973931531, "properties": {"amenity": "bicycle_rental", "capacity": "18", "name": "\u00c9tats Unis Ferry", "source:date": "2012-05-30", "source": "GrandToulouse", "operator": "JCDecaux", "ref": "243", "network": "V\u00e9l\u00f4Toulouse"}}, {"geometry": {"type": "Point", "coordinates": [1.4384014, 43.6063053]}, "type": "Feature", "id": 1557571102, "properties": {"amenity": "bicycle_rental", "capacity": "25", "name": "Place Anatole France", "source:date": "2012-05-30", "source": "GrandToulouse", "operator": "JCDecaux", "ref": "30", "start_date": "2007-11-16", "network": "V\u00e9l\u00f4Toulouse"}}, {"geometry": {"type": "Point", "coordinates": [1.4496145, 43.6047494]}, "type": "Feature", "id": 1832846521, "properties": {"amenity": "bicycle_rental", "capacity": "27", "name": "Carnot -  Trois Journ\u00e9es", "source:date": "2012-05-30", "source": "GrandToulouse", "operator": "JCDecaux", "ref": "20", "start_date": "2007-11-16", "network": "V\u00e9l\u00f4Toulouse"}}, {"geometry": {"type": "Point", "coordinates": [1.4135445, 43.5815612]}, "type": "Feature", "id": 363913249, "properties": {"addr:housenumber": "145", "amenity": "bicycle_rental", "capacity": "20", "addr:city": "Toulouse", "source": "GrandToulouse", "source:date": "2012-05-30", "network": "V\u00e9l\u00f4Toulouse", "operator": "JCDecaux", "addr:street": "Rue Henri Desbals", "ref": "143", "name": "Desbals Saintonge"}}, {"geometry": {"type": "Point", "coordinates": [1.4477401, 43.6064118]}, "type": "Feature", "id": 1973931516, "properties": {"amenity": "bicycle_rental", "capacity": "25", "name": "Strasbourg  - Sardane", "source:date": "2012-05-30", "source": "GrandToulouse", "operator": "JCDecaux", "ref": "17", "start_date": "2007-11-16", "network": "V\u00e9l\u00f4Toulouse"}}, {"geometry": {"type": "Point", "coordinates": [1.4672929, 43.6007386]}, "type": "Feature", "id": 1345232588, "properties": {"amenity": "bicycle_rental", "capacity": "18", "name": "Pujol Chaubet", "source:date": "2012-05-30", "source": "GrandToulouse", "operator": "JCDecaux", "ref": "213", "network": "V\u00e9l\u00f4Toulouse"}}, {"geometry": {"type": "Point", "coordinates": [1.4489326, 43.5924007]}, "type": "Feature", "id": 1475047435, "properties": {"amenity": "bicycle_rental", "capacity": "20", "name": "Museum - Dumeril", "source:date": "2012-05-30", "source": "GrandToulouse", "operator": "JCDecaux", "ref": "113", "network": "V\u00e9l\u00f4Toulouse"}}, {"geometry": {"type": "Point", "coordinates": [1.4530386, 43.585438]}, "type": "Feature", "id": 366579922, "properties": {"amenity": "bicycle_rental", "capacity": "18", "name": "Place Russel - Branly", "source:date": "2012-05-30", "source": "GrandToulouse", "operator": "JCDecaux", "ref": "112", "network": "V\u00e9l\u00f4Toulouse"}}, {"geometry": {"type": "Point", "coordinates": [1.4328966, 43.6148679]}, "type": "Feature", "id": 920675028, "properties": {"addr:housenumber": "1", "amenity": "bicycle_rental", "capacity": "15", "addr:city": "Toulouse", "source": "GrandToulouse", "source:date": "2012-05-30", "network": "V\u00e9l\u00f4Toulouse", "operator": "JCDecaux", "addr:street": "Rue de Chaussas", "ref": "123", "name": "H\u00f4tel de Police"}}, {"geometry": {"type": "Point", "coordinates": [1.4413098, 43.6132191]}, "type": "Feature", "id": 333175001, "properties": {"amenity": "bicycle_rental", "capacity": "13", "name": "Chalets", "source:date": "2012-05-30", "source": "GrandToulouse", "operator": "JCDecaux", "ref": "92", "network": "V\u00e9l\u00f4Toulouse"}}, {"geometry": {"type": "Point", "coordinates": [1.4731307, 43.5793477]}, "type": "Feature", "id": 338920666, "properties": {"amenity": "bicycle_rental", "capacity": "17", "name": "Butte Herbettes", "source:date": "2012-05-30", "source": "GrandToulouse", "operator": "JCDecaux", "ref": "238", "network": "V\u00e9l\u00f4Toulouse"}}, {"geometry": {"type": "Point", "coordinates": [1.4520454, 43.6013831]}, "type": "Feature", "id": 776077019, "properties": {"amenity": "bicycle_rental", "capacity": "24", "name": "Monument Aux Combattants", "source:date": "2012-05-30", "source": "GrandToulouse", "operator": "JCDecaux", "ref": "23", "start_date": "2007-11-16", "network": "V\u00e9l\u00f4Toulouse"}}, {"geometry": {"type": "Point", "coordinates": [1.4493323, 43.6051562]}, "type": "Feature", "id": 775992541, "properties": {"amenity": "bicycle_rental", "capacity": "25", "name": "Carnot  - Peri", "source:date": "2012-05-30", "source": "GrandToulouse", "operator": "JCDecaux", "ref": "19", "start_date": "2007-11-16", "network": "V\u00e9l\u00f4Toulouse"}}, {"geometry": {"type": "Point", "coordinates": [1.4802349, 43.5911817]}, "type": "Feature", "id": 365719776, "properties": {"amenity": "bicycle_rental", "capacity": "18", "name": "Limayrac Darasse", "source:date": "2012-05-30", "source": "GrandToulouse", "operator": "JCDecaux", "ref": "208", "network": "V\u00e9l\u00f4Toulouse"}}, {"geometry": {"type": "Point", "coordinates": [1.4486232, 43.6152841]}, "type": "Feature", "id": 441152749, "properties": {"amenity": "bicycle_rental", "capacity": "22", "name": "Raisin", "source:date": "2012-05-30", "source": "GrandToulouse", "operator": "JCDecaux", "ref": "149", "network": "V\u00e9l\u00f4Toulouse"}}, {"geometry": {"type": "Point", "coordinates": [1.4528598, 43.6058036]}, "type": "Feature", "id": 631754990, "properties": {"amenity": "bicycle_rental", "capacity": "19", "name": "Place de Damloup", "source:date": "2012-05-30", "source": "GrandToulouse", "operator": "JCDecaux", "ref": "39", "network": "V\u00e9l\u00f4Toulouse"}}, {"geometry": {"type": "Point", "coordinates": [1.4775471, 43.6122299]}, "type": "Feature", "id": 1973931490, "properties": {"amenity": "bicycle_rental", "capacity": "15", "name": "Place Soupetard", "source:date": "2012-05-30", "source": "GrandToulouse", "operator": "JCDecaux", "ref": "180", "network": "V\u00e9l\u00f4Toulouse"}}, {"geometry": {"type": "Point", "coordinates": [1.4037946, 43.59728]}, "type": "Feature", "id": 417956905, "properties": {"amenity": "bicycle_rental", "capacity": "20", "name": "Toec Abbe Lemire", "source:date": "2012-05-30", "source": "GrandToulouse", "operator": "JCDecaux", "ref": "236", "network": "V\u00e9l\u00f4Toulouse"}}, {"geometry": {"type": "Point", "coordinates": [1.4096419, 43.5878182]}, "type": "Feature", "id": 353994486, "properties": {"amenity": "bicycle_rental", "capacity": "18", "name": "Saint Simon Prado", "source:date": "2012-05-30", "source": "GrandToulouse", "operator": "JCDecaux", "ref": "192", "network": "V\u00e9l\u00f4Toulouse"}}, {"geometry": {"type": "Point", "coordinates": [1.4304008, 43.609618]}, "type": "Feature", "id": 471334441, "properties": {"amenity": "bicycle_rental", "capacity": "25", "name": "Sebastopol - Lascrosses", "source:date": "2012-05-30", "source": "GrandToulouse", "operator": "JCDecaux", "ref": "107", "network": "V\u00e9l\u00f4Toulouse"}}, {"geometry": {"type": "Point", "coordinates": [1.4799564, 43.6092534]}, "type": "Feature", "id": 1973931494, "properties": {"amenity": "bicycle_rental", "capacity": "15", "name": "Plana Garnier", "source:date": "2012-05-30", "source": "GrandToulouse", "operator": "JCDecaux", "ref": "181", "network": "V\u00e9l\u00f4Toulouse"}}, {"geometry": {"type": "Point", "coordinates": [1.4145751, 43.6115951]}, "type": "Feature", "id": 859229443, "properties": {"addr:housenumber": "15", "amenity": "bicycle_rental", "capacity": "18", "addr:city": "Toulouse", "source": "GrandToulouse", "source:date": "2012-05-30", "network": "V\u00e9l\u00f4Toulouse", "operator": "JCDecaux", "addr:street": "Rue Paul Bernies", "ref": "131", "name": "Bernies Poste"}}, {"geometry": {"type": "Point", "coordinates": [1.4482666, 43.6063048]}, "type": "Feature", "id": 1973931517, "properties": {"amenity": "bicycle_rental", "capacity": "24", "name": "Strasbourg - Jaur\u00e8s", "source:date": "2012-05-30", "source": "GrandToulouse", "operator": "JCDecaux", "ref": "18", "start_date": "2007-11-16", "network": "V\u00e9l\u00f4Toulouse"}}, {"geometry": {"type": "Point", "coordinates": [1.4354589, 43.6334896]}, "type": "Feature", "id": 1973931478, "properties": {"amenity": "bicycle_rental", "capacity": "20", "name": "M\u00e9tro La Vache", "source:date": "2012-05-30", "source": "GrandToulouse", "operator": "JCDecaux", "ref": "235", "network": "V\u00e9l\u00f4Toulouse"}}, {"geometry": {"type": "Point", "coordinates": [1.4525295, 43.596874]}, "type": "Feature", "id": 333176075, "properties": {"amenity": "bicycle_rental", "capacity": "27", "name": "Verdier - Grand Rond", "source:date": "2012-05-30", "source": "GrandToulouse", "operator": "JCDecaux", "ref": "65", "start_date": "2007-11-16", "network": "V\u00e9l\u00f4Toulouse"}}, {"geometry": {"type": "Point", "coordinates": [1.4109893, 43.5792198]}, "type": "Feature", "id": 494092049, "properties": {"amenity": "bicycle_rental", "capacity": "18", "name": "Desbals Bachaga Boualam", "source:date": "2012-05-30", "source": "GrandToulouse", "operator": "JCDecaux", "ref": "186", "network": "V\u00e9l\u00f4Toulouse"}}, {"geometry": {"type": "Point", "coordinates": [1.4286029, 43.6080099]}, "type": "Feature", "id": 1973931443, "properties": {"amenity": "bicycle_rental", "capacity": "18", "name": "Heracles - Bearnais", "source:date": "2012-05-30", "source": "GrandToulouse", "operator": "JCDecaux", "ref": "86", "start_date": "2007-11-16", "network": "V\u00e9l\u00f4Toulouse"}}, {"geometry": {"type": "Point", "coordinates": [1.435023, 43.6102093]}, "type": "Feature", "id": 1557571071, "properties": {"amenity": "bicycle_rental", "capacity": "25", "name": "Duportal -  Lascrosses", "source:date": "2012-05-30", "source": "GrandToulouse", "operator": "JCDecaux", "ref": "88", "start_date": "2007-11-16", "network": "V\u00e9l\u00f4Toulouse"}}, {"geometry": {"type": "Point", "coordinates": [1.4701008, 43.5915364]}, "type": "Feature", "id": 1345778974, "properties": {"amenity": "bicycle_rental", "capacity": "20", "name": "Deltour Rieux", "source:date": "2012-05-30", "source": "GrandToulouse", "operator": "JCDecaux", "ref": "199", "network": "V\u00e9l\u00f4Toulouse"}}, {"geometry": {"type": "Point", "coordinates": [1.4510096, 43.5964275]}, "type": "Feature", "id": 333176609, "properties": {"amenity": "bicycle_rental", "capacity": "23", "name": "Jardin Royal", "source:date": "2012-05-30", "source": "GrandToulouse", "operator": "JCDecaux", "ref": "66", "start_date": "2007-11-16", "network": "V\u00e9l\u00f4Toulouse"}}, {"geometry": {"type": "Point", "coordinates": [1.4439969, 43.6268608]}, "type": "Feature", "id": 1973931483, "properties": {"amenity": "bicycle_rental", "capacity": "20", "name": "Negreneys", "source:date": "2012-05-30", "source": "GrandToulouse", "operator": "JCDecaux", "ref": "252", "network": "V\u00e9l\u00f4Toulouse"}}, {"geometry": {"type": "Point", "coordinates": [1.4354498, 43.6210621]}, "type": "Feature", "id": 1493626665, "properties": {"amenity": "bicycle_rental", "network": "V\u00e9l\u00f4Toulouse"}}, {"geometry": {"type": "Point", "coordinates": [1.4561401, 43.6016256]}, "type": "Feature", "id": 654572842, "properties": {"amenity": "bicycle_rental", "capacity": "23", "name": "Dauriac - Escande", "source:date": "2012-05-30", "source": "GrandToulouse", "operator": "JCDecaux", "ref": "42", "start_date": "2007-11-16", "network": "V\u00e9l\u00f4Toulouse"}}, {"geometry": {"type": "Point", "coordinates": [1.4836291, 43.5790376]}, "type": "Feature", "id": 1973931492, "properties": {"amenity": "bicycle_rental", "capacity": "20", "name": "Place de L Ormeau", "source:date": "2012-05-30", "source": "GrandToulouse", "operator": "JCDecaux", "ref": "200", "network": "V\u00e9l\u00f4Toulouse"}}, {"geometry": {"type": "Point", "coordinates": [1.4282472, 43.6056547]}, "type": "Feature", "id": 1557571140, "properties": {"amenity": "bicycle_rental", "capacity": "15", "name": "Brienne  -  Passerelle", "source:date": "2012-05-30", "source": "GrandToulouse", "operator": "JCDecaux", "ref": "106", "start_date": "2007-11-16", "network": "V\u00e9l\u00f4Toulouse"}}, {"geometry": {"type": "Point", "coordinates": [1.4250011, 43.6138986]}, "type": "Feature", "id": 1973931441, "properties": {"amenity": "bicycle_rental", "capacity": "20", "name": "Gounod Garros", "source:date": "2012-05-30", "source": "GrandToulouse", "operator": "JCDecaux", "ref": "145", "network": "V\u00e9l\u00f4Toulouse"}}, {"geometry": {"type": "Point", "coordinates": [1.4817485, 43.6059615]}, "type": "Feature", "id": 1973931424, "properties": {"amenity": "bicycle_rental", "capacity": "20", "name": "Chaubet", "source:date": "2012-05-30", "source": "GrandToulouse", "operator": "JCDecaux", "ref": "182", "network": "V\u00e9l\u00f4Toulouse"}}, {"geometry": {"type": "Point", "coordinates": [1.424086, 43.5966746]}, "type": "Feature", "id": 346345780, "properties": {"amenity": "bicycle_rental", "capacity": "16", "name": "Billieres -  Patte D Oie", "source:date": "2012-05-30", "source": "GrandToulouse", "operator": "JCDecaux", "ref": "130", "network": "V\u00e9l\u00f4Toulouse"}}, {"geometry": {"type": "Point", "coordinates": [1.4431191, 43.6246223]}, "type": "Feature", "id": 1973931433, "properties": {"amenity": "bicycle_rental", "capacity": "20", "name": "Curie Negreneys", "source:date": "2012-05-30", "source": "GrandToulouse", "operator": "JCDecaux", "ref": "151", "network": "V\u00e9l\u00f4Toulouse"}}, {"geometry": {"type": "Point", "coordinates": [1.4255371, 43.6023178]}, "type": "Feature", "id": 1973931519, "properties": {"amenity": "bicycle_rental", "capacity": "20", "name": "Theatre Garonne", "source:date": "2012-05-30", "source": "GrandToulouse", "operator": "JCDecaux", "ref": "95", "network": "V\u00e9l\u00f4Toulouse"}}, {"geometry": {"type": "Point", "coordinates": [1.4542532, 43.6074478]}, "type": "Feature", "id": 1973931487, "properties": {"amenity": "bicycle_rental", "capacity": "22", "name": "Piscine Leo Lagrange", "source:date": "2012-05-30", "source": "GrandToulouse", "operator": "JCDecaux", "ref": "63", "network": "V\u00e9l\u00f4Toulouse"}}, {"geometry": {"type": "Point", "coordinates": [1.4366196, 43.6110729]}, "type": "Feature", "id": 773935937, "properties": {"addr:housenumber": "1", "amenity": "bicycle_rental", "capacity": "23", "addr:city": "Toulouse", "source": "GrandToulouse", "source:date": "2012-05-30", "network": "V\u00e9l\u00f4Toulouse", "operator": "JCDecaux", "addr:street": "Esplanade Compans Caffarelli", "ref": "89", "name": "Esp Compans Caffarelli"}}, {"geometry": {"type": "Point", "coordinates": [1.4373141, 43.6050783]}, "type": "Feature", "id": 1557571194, "properties": {"amenity": "bicycle_rental", "capacity": "19", "name": "Valade", "source:date": "2012-05-30", "source": "GrandToulouse", "operator": "JCDecaux", "ref": "29", "start_date": "2007-11-16", "network": "V\u00e9l\u00f4Toulouse"}}, {"geometry": {"type": "Point", "coordinates": [1.4493465, 43.6095721]}, "type": "Feature", "id": 1973931489, "properties": {"amenity": "bicycle_rental", "capacity": "23", "name": "Place Schuman", "source:date": "2012-05-30", "source": "GrandToulouse", "operator": "JCDecaux", "ref": "36", "network": "V\u00e9l\u00f4Toulouse"}}, {"geometry": {"type": "Point", "coordinates": [1.4568042, 43.6190127]}, "type": "Feature", "id": 1973931527, "properties": {"amenity": "bicycle_rental", "capacity": "20", "name": "\u00c9glise Bonnefoy", "source:date": "2012-05-30", "source": "GrandToulouse", "operator": "JCDecaux", "ref": "134", "network": "V\u00e9l\u00f4Toulouse"}}, {"geometry": {"type": "Point", "coordinates": [1.4196236, 43.60998]}, "type": "Feature", "id": 1557571042, "properties": {"amenity": "bicycle_rental", "capacity": "24", "name": "Chapou", "source:date": "2012-05-30", "source": "GrandToulouse", "operator": "JCDecaux", "ref": "119", "network": "V\u00e9l\u00f4Toulouse"}}, {"geometry": {"type": "Point", "coordinates": [1.4486488, 43.5942381]}, "type": "Feature", "id": 426935119, "properties": {"amenity": "bicycle_rental", "capacity": "28", "name": "Museum", "source:date": "2012-05-30", "source": "GrandToulouse", "operator": "JCDecaux", "ref": "67", "network": "V\u00e9l\u00f4Toulouse"}}, {"geometry": {"type": "Point", "coordinates": [1.4617933, 43.6143386]}, "type": "Feature", "id": 1345123667, "properties": {"amenity": "bicycle_rental", "capacity": "20", "name": "Jolimont", "source:date": "2012-05-30", "source": "GrandToulouse", "operator": "JCDecaux", "ref": "251", "network": "V\u00e9l\u00f4Toulouse"}}, {"geometry": {"type": "Point", "coordinates": [1.4631526, 43.632693]}, "type": "Feature", "id": 1973931406, "properties": {"amenity": "bicycle_rental", "capacity": "18", "name": "Albi Avranches", "source:date": "2012-05-30", "source": "GrandToulouse", "operator": "JCDecaux", "ref": "169", "network": "V\u00e9l\u00f4Toulouse"}}, {"geometry": {"type": "Point", "coordinates": [1.431675, 43.5977877]}, "type": "Feature", "id": 308978518, "properties": {"amenity": "bicycle_rental", "capacity": "13", "name": "Place Int Saint Cyprien", "source:date": "2012-05-30", "source": "GrandToulouse", "operator": "JCDecaux", "ref": "77", "network": "V\u00e9l\u00f4Toulouse"}}, {"geometry": {"type": "Point", "coordinates": [1.462419, 43.5815725]}, "type": "Feature", "id": 338927447, "properties": {"amenity": "bicycle_rental", "capacity": "20", "name": "Bedouce Canal du Midi", "source:date": "2012-05-30", "source": "GrandToulouse", "operator": "JCDecaux", "ref": "163", "network": "V\u00e9l\u00f4Toulouse"}}, {"geometry": {"type": "Point", "coordinates": [1.4532873, 43.5906753]}, "type": "Feature", "id": 417975129, "properties": {"amenity": "bicycle_rental", "capacity": "16", "name": "Demoiselles - Mistral", "source:date": "2012-05-30", "source": "GrandToulouse", "operator": "JCDecaux", "ref": "115", "network": "V\u00e9l\u00f4Toulouse"}}, {"geometry": {"type": "Point", "coordinates": [1.4546553, 43.624093]}, "type": "Feature", "id": 1186362715, "properties": {"amenity": "bicycle_rental", "capacity": "18", "name": "Lapujade Flandres", "source:date": "2012-05-30", "source": "GrandToulouse", "operator": "JCDecaux", "ref": "167", "network": "V\u00e9l\u00f4Toulouse"}}, {"geometry": {"type": "Point", "coordinates": [1.4321965, 43.6055222]}, "type": "Feature", "id": 599332703, "properties": {"addr:housenumber": "19T", "amenity": "bicycle_rental", "capacity": "24", "addr:city": "Toulouse", "source": "GrandToulouse", "source:date": "2012-05-30", "network": "V\u00e9l\u00f4Toulouse", "operator": "JCDecaux", "addr:street": "All\u00e9e de Brienne", "ref": "84", "name": "Brienne -  Manufacture"}}, {"geometry": {"type": "Point", "coordinates": [1.4818284, 43.5831694]}, "type": "Feature", "id": 362671460, "properties": {"operator": "Vel\u00f4Toulouse", "amenity": "bicycle_rental", "ref": "207", "name": "Christ Roi", "created_by": "Potlatch 0.10f"}}, {"geometry": {"type": "Point", "coordinates": [1.4436208, 43.6106821]}, "type": "Feature", "id": 1557571046, "properties": {"amenity": "bicycle_rental", "capacity": "25", "name": "Concorde -  Arcole", "source:date": "2012-05-30", "source": "GrandToulouse", "operator": "JCDecaux", "ref": "58", "start_date": "2007-11-16", "network": "V\u00e9l\u00f4Toulouse"}}, {"geometry": {"type": "Point", "coordinates": [1.4379673, 43.6111866]}, "type": "Feature", "id": 583010662, "properties": {"amenity": "bicycle_rental", "capacity": "26", "name": "Lascrosses -  Place Arnaud Bernard", "source:date": "2012-05-30", "source": "GrandToulouse", "operator": "JCDecaux", "ref": "90", "start_date": "2007-11-16", "network": "V\u00e9l\u00f4Toulouse"}}, {"geometry": {"type": "Point", "coordinates": [1.4740426, 43.6227619]}, "type": "Feature", "id": 1973931409, "properties": {"amenity": "bicycle_rental", "capacity": "18", "name": "Argoulets Houdon", "source:date": "2012-05-30", "source": "GrandToulouse", "operator": "JCDecaux", "ref": "216", "network": "V\u00e9l\u00f4Toulouse"}}, {"geometry": {"type": "Point", "coordinates": [1.434138, 43.6010832]}, "type": "Feature", "id": 308978536, "properties": {"amenity": "bicycle_rental", "capacity": "19", "name": "Place Lange", "source:date": "2012-05-30", "source": "GrandToulouse", "operator": "JCDecaux", "ref": "79", "start_date": "2007-11-16", "network": "V\u00e9l\u00f4Toulouse"}}, {"geometry": {"type": "Point", "coordinates": [1.4314776, 43.5980674]}, "type": "Feature", "id": 308978537, "properties": {"amenity": "bicycle_rental", "capacity": "17", "name": "Place Int Saint Cyprien Darre", "source:date": "2012-05-30", "source": "GrandToulouse", "operator": "JCDecaux", "ref": "78", "network": "V\u00e9l\u00f4Toulouse"}}, {"geometry": {"type": "Point", "coordinates": [1.4366884, 43.5984305]}, "type": "Feature", "id": 308978538, "properties": {"amenity": "bicycle_rental", "capacity": "21", "name": "Ch\u00e2teau D Eau", "source:date": "2012-05-30", "source": "GrandToulouse", "operator": "JCDecaux", "ref": "75", "start_date": "2007-11-16", "network": "V\u00e9l\u00f4Toulouse"}}, {"geometry": {"type": "Point", "coordinates": [1.4430191, 43.5979599]}, "type": "Feature", "id": 470252396, "properties": {"amenity": "bicycle_rental", "capacity": "21", "network": "V\u00e9l\u00f4Toulouse", "source:date": "2012-05-30", "source": "GrandToulouse", "address": "9 Rue Henry de Gorsse", "operator": "JCDecaux", "ref": "26", "start_date": "2007-11-16", "name": "Dalbade - de Gorsse"}}, {"geometry": {"type": "Point", "coordinates": [1.4101847, 43.5959865]}, "type": "Feature", "id": 634222445, "properties": {"source:date": "2012-05-30", "amenity": "bicycle_rental", "capacity": "17", "name": "Ella Maillart - Roquemaurel", "wheelchair": "no", "note": "beeing built (2010-01)", "source": "GrandToulouse", "operator": "JCDecaux", "ref": "9", "network": "V\u00e9l\u00f4Toulouse"}}, {"geometry": {"type": "Point", "coordinates": [1.4382374, 43.6136956]}, "type": "Feature", "id": 1080919410, "properties": {"source": "http://www.velo.toulouse.fr/Les-stations/Trouver-une-station/(id)/110", "amenity": "bicycle_rental", "name": "V\u00e9l\u00f4Toulouse"}}, {"geometry": {"type": "Point", "coordinates": [1.4340276, 43.6270614]}, "type": "Feature", "id": 1973931411, "properties": {"amenity": "bicycle_rental", "capacity": "20", "name": "Barri\u00e8re de Paris", "source:date": "2012-05-30", "source": "GrandToulouse", "operator": "JCDecaux", "ref": "125", "network": "V\u00e9l\u00f4Toulouse"}}, {"geometry": {"type": "Point", "coordinates": [1.4152534, 43.5900551]}, "type": "Feature", "id": 346340724, "properties": {"amenity": "bicycle_rental", "capacity": "20", "name": "Saint Simon Quatorze Juillet", "source:date": "2012-05-30", "source": "GrandToulouse", "operator": "JCDecaux", "ref": "191", "network": "V\u00e9l\u00f4Toulouse"}}, {"geometry": {"type": "Point", "coordinates": [1.4640465, 43.6003557]}, "type": "Feature", "id": 1332187144, "properties": {"amenity": "bicycle_rental", "capacity": "20", "name": "Caserne Perignon", "source:date": "2012-05-30", "source": "GrandToulouse", "operator": "JCDecaux", "ref": "197", "network": "V\u00e9l\u00f4Toulouse"}}, {"geometry": {"type": "Point", "coordinates": [1.4586786, 43.5665006]}, "type": "Feature", "id": 803340152, "properties": {"amenity": "bicycle_rental", "capacity": "20", "name": "Narbonne Sahuque", "source:date": "2012-05-30", "source": "GrandToulouse", "operator": "JCDecaux", "ref": "233", "network": "V\u00e9l\u00f4Toulouse"}}, {"geometry": {"type": "Point", "coordinates": [1.4590146, 43.5972809]}, "type": "Feature", "id": 1790723450, "properties": {"amenity": "bicycle_rental", "capacity": "20", "name": "Larousse Rieux", "source:date": "2012-05-30", "source": "GrandToulouse", "operator": "JCDecaux", "ref": "195", "network": "V\u00e9l\u00f4Toulouse"}}, {"geometry": {"type": "Point", "coordinates": [1.4241176, 43.5769207]}, "type": "Feature", "id": 379536255, "properties": {"amenity": "bicycle_rental", "name": "V\u00e9l\u00f4Toulouse"}}, {"geometry": {"type": "Point", "coordinates": [1.4484875, 43.6126259]}, "type": "Feature", "id": 333177216, "properties": {"amenity": "bicycle_rental", "capacity": "21", "name": "Roquelaine", "source:date": "2012-05-30", "source": "GrandToulouse", "operator": "JCDecaux", "ref": "60", "network": "V\u00e9l\u00f4Toulouse"}}, {"geometry": {"type": "Point", "coordinates": [1.4382159, 43.6128406]}, "type": "Feature", "id": 1080919426, "properties": {"amenity": "bicycle_rental", "capacity": "20", "name": "Serres -  Arnaud Bernard", "source:date": "2012-05-30", "source": "GrandToulouse", "operator": "JCDecaux", "ref": "121", "network": "V\u00e9l\u00f4Toulouse"}}, {"geometry": {"type": "Point", "coordinates": [1.415596, 43.5844908]}, "type": "Feature", "id": 363912580, "properties": {"addr:housenumber": "187", "amenity": "bicycle_rental", "capacity": "15", "addr:city": "Toulouse", "source": "GrandToulouse", "source:date": "2012-05-30", "network": "V\u00e9l\u00f4Toulouse", "operator": "JCDecaux", "addr:street": "Rue Henri Desbals", "ref": "187", "name": "Desbals Mont Dore"}}, {"geometry": {"type": "Point", "coordinates": [1.4745134, 43.563846]}, "type": "Feature", "id": 491564933, "properties": {"amenity": "bicycle_rental", "capacity": "20", "name": "Cambou / Roche", "source:date": "2012-10-21", "source": "survey", "operator": "JCDecaux", "ref": "222", "network": "V\u00e9l\u00f4Toulouse"}}, {"geometry": {"type": "Point", "coordinates": [1.4631698, 43.5868205]}, "type": "Feature", "id": 1832828301, "properties": {"website": "http://www.velo.toulouse.fr/index.php", "amenity": "bicycle_rental", "capacity": "18", "name": "Pl Roger Arnaud", "addr:postcode": "31400", "source:date": "2012-05-30", "source": "GrandToulouse", "operator": "JCDecaux", "ref": "204", "network": "V\u00e9l\u00f4Toulouse"}}, {"geometry": {"type": "Point", "coordinates": [1.4102667, 43.5939941]}, "type": "Feature", "id": 308978521, "properties": {"amenity": "bicycle_rental", "capacity": "20", "name": "Lombez Hippodrome", "source:date": "2012-05-30", "source": "GrandToulouse", "operator": "JCDecaux", "ref": "194", "network": "V\u00e9l\u00f4Toulouse"}}, {"geometry": {"type": "Point", "coordinates": [1.4619431, 43.6276651]}, "type": "Feature", "id": 1973931407, "properties": {"amenity": "bicycle_rental", "capacity": "18", "name": "Amouroux Sainte Augustine", "source:date": "2012-05-30", "source": "GrandToulouse", "operator": "JCDecaux", "ref": "218", "network": "V\u00e9l\u00f4Toulouse"}}, {"geometry": {"type": "Point", "coordinates": [1.4396673, 43.6115693]}, "type": "Feature", "id": 1973931408, "properties": {"amenity": "bicycle_rental", "capacity": "23", "name": "Arcole -  Balance", "source:date": "2012-05-30", "source": "GrandToulouse", "operator": "JCDecaux", "ref": "91", "start_date": "2007-11-16", "network": "V\u00e9l\u00f4Toulouse"}}, {"geometry": {"type": "Point", "coordinates": [1.4188103, 43.5955758]}, "type": "Feature", "id": 308977553, "properties": {"amenity": "bicycle_rental", "capacity": "20", "name": "Barri\u00e8re de Lombez", "source:date": "2012-05-30", "source": "GrandToulouse", "operator": "JCDecaux", "ref": "139", "network": "V\u00e9l\u00f4Toulouse"}}, {"geometry": {"type": "Point", "coordinates": [1.4601362, 43.5768658]}, "type": "Feature", "id": 1973931410, "properties": {"amenity": "bicycle_rental", "capacity": "15", "name": "Avions Libellules", "source:date": "2012-05-30", "source": "GrandToulouse", "operator": "JCDecaux", "ref": "165", "network": "V\u00e9l\u00f4Toulouse"}}, {"geometry": {"type": "Point", "coordinates": [1.4321368, 43.5963178]}, "type": "Feature", "id": 368943507, "properties": {"amenity": "bicycle_rental", "capacity": "17", "name": "Fitte - Teinturiers", "source:date": "2012-05-30", "source": "GrandToulouse", "operator": "JCDecaux", "ref": "73", "start_date": "2007-11-16", "network": "V\u00e9l\u00f4Toulouse"}}, {"geometry": {"type": "Point", "coordinates": [1.4579281, 43.5924442]}, "type": "Feature", "id": 1973931412, "properties": {"amenity": "bicycle_rental", "capacity": "20", "name": "Bd Montplaisir -  Canal", "source:date": "2012-05-30", "source": "GrandToulouse", "operator": "JCDecaux", "ref": "114", "network": "V\u00e9l\u00f4Toulouse"}}, {"geometry": {"type": "Point", "coordinates": [1.4809585, 43.5622904]}, "type": "Feature", "id": 1973931413, "properties": {"amenity": "bicycle_rental", "capacity": "20", "name": "Belin CNRS", "source:date": "2012-05-30", "source": "GrandToulouse", "operator": "JCDecaux", "ref": "237", "network": "V\u00e9l\u00f4Toulouse"}}, {"geometry": {"type": "Point", "coordinates": [1.4734735, 43.5701678]}, "type": "Feature", "id": 1973931414, "properties": {"amenity": "bicycle_rental", "capacity": "20", "name": "Belin Onera", "source:date": "2012-05-30", "source": "GrandToulouse", "operator": "JCDecaux", "ref": "225", "network": "V\u00e9l\u00f4Toulouse"}}, {"geometry": {"type": "Point", "coordinates": [1.4436047, 43.6086078]}, "type": "Feature", "id": 1973931415, "properties": {"amenity": "bicycle_rental", "capacity": "15", "name": "Beraldi", "source:date": "2012-05-30", "source": "GrandToulouse", "operator": "JCDecaux", "ref": "33", "start_date": "2007-11-16", "network": "V\u00e9l\u00f4Toulouse"}}, {"geometry": {"type": "Point", "coordinates": [1.4587743, 43.6265865]}, "type": "Feature", "id": 1973931416, "properties": {"amenity": "bicycle_rental", "capacity": "15", "name": "Bila", "source:date": "2012-05-30", "source": "GrandToulouse", "operator": "JCDecaux", "ref": "168", "network": "V\u00e9l\u00f4Toulouse"}}, {"geometry": {"type": "Point", "coordinates": [1.4325341, 43.5952319]}, "type": "Feature", "id": 368943513, "properties": {"amenity": "bicycle_rental", "capacity": "18", "name": "Fitte -  Cugnaux", "source:date": "2012-05-30", "source": "GrandToulouse", "operator": "JCDecaux", "ref": "72", "start_date": "2007-11-16", "network": "V\u00e9l\u00f4Toulouse"}}, {"geometry": {"type": "Point", "coordinates": [1.4485398, 43.6410083]}, "type": "Feature", "id": 1973931418, "properties": {"amenity": "bicycle_rental", "capacity": "18", "name": "Bouquetins Rostand", "source:date": "2012-05-30", "source": "GrandToulouse", "operator": "JCDecaux", "ref": "248", "network": "V\u00e9l\u00f4Toulouse"}}, {"geometry": {"type": "Point", "coordinates": [1.4404525, 43.5989125]}, "type": "Feature", "id": 368939419, "properties": {"amenity": "bicycle_rental", "capacity": "22", "name": "Quai de Tounis", "source:date": "2012-05-30", "source": "GrandToulouse", "operator": "JCDecaux", "ref": "27", "start_date": "2007-11-16", "network": "V\u00e9l\u00f4Toulouse"}}, {"geometry": {"type": "Point", "coordinates": [1.4507377, 43.6332181]}, "type": "Feature", "id": 1973931420, "properties": {"amenity": "bicycle_rental", "capacity": "20", "name": "Bourges Maunoury Segla", "source:date": "2012-05-30", "source": "GrandToulouse", "operator": "JCDecaux", "ref": "173", "network": "V\u00e9l\u00f4Toulouse"}}, {"geometry": {"type": "Point", "coordinates": [1.4516994, 43.6074506]}, "type": "Feature", "id": 1284259229, "properties": {"amenity": "bicycle_rental", "capacity": "20", "name": "Jaur\u00e8s -  Bachelier", "source:date": "2012-05-30", "source": "GrandToulouse", "operator": "JCDecaux", "ref": "38", "network": "V\u00e9l\u00f4Toulouse"}}, {"geometry": {"type": "Point", "coordinates": [1.4736208, 43.6169504]}, "type": "Feature", "id": 1973931422, "properties": {"amenity": "bicycle_rental", "capacity": "17", "name": "Cassaing Plana", "source:date": "2012-05-30", "source": "GrandToulouse", "operator": "JCDecaux", "ref": "179", "network": "V\u00e9l\u00f4Toulouse"}}, {"geometry": {"type": "Point", "coordinates": [1.4516315, 43.5978755]}, "type": "Feature", "id": 1832833440, "properties": {"amenity": "bicycle_rental", "capacity": "20", "name": "Palais Niel", "source:date": "2012-05-30", "source": "GrandToulouse", "operator": "JCDecaux", "ref": "44", "start_date": "2007-11-16", "network": "V\u00e9l\u00f4Toulouse"}}, {"geometry": {"type": "Point", "coordinates": [1.4254547, 43.581521]}, "type": "Feature", "id": 596334497, "properties": {"amenity": "bicycle_rental", "capacity": "20", "name": "Muret Boutinon", "source:date": "2012-05-30", "source": "GrandToulouse", "operator": "JCDecaux", "ref": "189", "network": "V\u00e9l\u00f4Toulouse"}}, {"geometry": {"type": "Point", "coordinates": [1.4819482, 43.5833549]}, "type": "Feature", "id": 1973931426, "properties": {"amenity": "bicycle_rental", "capacity": "17", "name": "Christ Roi", "source:date": "2012-05-30", "source": "GrandToulouse", "operator": "JCDecaux", "ref": "207", "network": "V\u00e9l\u00f4Toulouse"}}, {"geometry": {"type": "Point", "coordinates": [1.4526791, 43.6369207]}, "type": "Feature", "id": 1973931419, "properties": {"amenity": "bicycle_rental", "capacity": "20", "name": "Bourges Maunoury Melat", "source:date": "2012-05-30", "source": "GrandToulouse", "operator": "JCDecaux", "ref": "174", "network": "V\u00e9l\u00f4Toulouse"}}, {"geometry": {"type": "Point", "coordinates": [1.4464126, 43.613435]}, "type": "Feature", "id": 1973931428, "properties": {"amenity": "bicycle_rental", "capacity": "18", "name": "Concorde -  Printemps", "source:date": "2012-05-30", "source": "GrandToulouse", "operator": "JCDecaux", "ref": "59", "network": "V\u00e9l\u00f4Toulouse"}}, {"geometry": {"type": "Point", "coordinates": [1.4557104, 43.5966576]}, "type": "Feature", "id": 333176229, "properties": {"amenity": "bicycle_rental", "capacity": "19", "name": "Sabatier - Port Saint Sauveur", "source:date": "2012-05-30", "source": "GrandToulouse", "operator": "JCDecaux", "ref": "100", "network": "V\u00e9l\u00f4Toulouse"}}, {"geometry": {"type": "Point", "coordinates": [1.4654589, 43.6152178]}, "type": "Feature", "id": 1973931430, "properties": {"amenity": "bicycle_rental", "capacity": "17", "name": "Cretes Chaumieres", "source:date": "2012-05-30", "source": "GrandToulouse", "operator": "JCDecaux", "ref": "212", "network": "V\u00e9l\u00f4Toulouse"}}, {"geometry": {"type": "Point", "coordinates": [1.4283606, 43.5854539]}, "type": "Feature", "id": 1973931431, "properties": {"amenity": "bicycle_rental", "capacity": "18", "name": "Croix de Pierre - D\u00e9odat de Severac", "source:date": "2012-05-30", "source": "GrandToulouse", "operator": "JCDecaux", "ref": "129", "network": "V\u00e9l\u00f4Toulouse"}}, {"geometry": {"type": "Point", "coordinates": [1.4259103, 43.5968426]}, "type": "Feature", "id": 346346408, "properties": {"amenity": "bicycle_rental", "capacity": "17", "name": "Billieres - Poste", "source:date": "2012-05-30", "source": "GrandToulouse", "operator": "JCDecaux", "ref": "117", "network": "V\u00e9l\u00f4Toulouse"}}, {"geometry": {"type": "Point", "coordinates": [1.4674468, 43.5674681]}, "type": "Feature", "id": 559643561, "properties": {"amenity": "bicycle_rental", "capacity": "20", "name": "Rangueil Tripode B", "source:date": "2012-05-30", "source": "GrandToulouse", "operator": "JCDecaux", "ref": "230", "network": "V\u00e9l\u00f4Toulouse"}}, {"geometry": {"type": "Point", "coordinates": [1.4652564, 43.5572186]}, "type": "Feature", "id": 559643562, "properties": {"amenity": "bicycle_rental", "capacity": "20", "name": "Narbonne Iufm", "source:date": "2012-05-30", "source": "GrandToulouse", "operator": "JCDecaux", "ref": "231", "network": "V\u00e9l\u00f4Toulouse"}}, {"geometry": {"type": "Point", "coordinates": [1.4230751, 43.5888106]}, "type": "Feature", "id": 1973931435, "properties": {"amenity": "bicycle_rental", "capacity": "20", "name": "D\u00e9odat de Severac", "source:date": "2012-05-30", "source": "GrandToulouse", "operator": "JCDecaux", "ref": "142", "network": "V\u00e9l\u00f4Toulouse"}}, {"geometry": {"type": "Point", "coordinates": [1.454462, 43.6026919]}, "type": "Feature", "id": 563728300, "properties": {"amenity": "bicycle_rental", "capacity": "20", "name": "Saint Aubin  - Camichel", "source:date": "2012-05-30", "source": "GrandToulouse", "operator": "JCDecaux", "ref": "41", "network": "V\u00e9l\u00f4Toulouse"}}, {"geometry": {"type": "Point", "coordinates": [1.4242383, 43.5751086]}, "type": "Feature", "id": 1973931437, "properties": {"amenity": "bicycle_rental", "capacity": "20", "name": "Espagne Charpentier", "source:date": "2012-05-30", "source": "GrandToulouse", "operator": "JCDecaux", "ref": "241", "network": "V\u00e9l\u00f4Toulouse"}}, {"geometry": {"type": "Point", "coordinates": [1.4431472, 43.5926608]}, "type": "Feature", "id": 1973931438, "properties": {"amenity": "bicycle_rental", "capacity": "20", "name": "Feuga", "source:date": "2012-05-30", "source": "GrandToulouse", "operator": "JCDecaux", "ref": "69", "start_date": "2007-11-16", "network": "V\u00e9l\u00f4Toulouse"}}, {"geometry": {"type": "Point", "coordinates": [1.451727, 43.6029216]}, "type": "Feature", "id": 1973931421, "properties": {"amenity": "bicycle_rental", "capacity": "20", "name": "Carnot Roland", "source:date": "2012-05-30", "source": "GrandToulouse", "operator": "JCDecaux", "ref": "22", "start_date": "2007-11-16", "network": "V\u00e9l\u00f4Toulouse"}}, {"geometry": {"type": "Point", "coordinates": [1.4580158, 43.6018357]}, "type": "Feature", "id": 1973931440, "properties": {"amenity": "bicycle_rental", "capacity": "20", "name": "Goujon Pujol", "source:date": "2012-05-30", "source": "GrandToulouse", "operator": "JCDecaux", "ref": "196", "network": "V\u00e9l\u00f4Toulouse"}}, {"geometry": {"type": "Point", "coordinates": [1.4552142, 43.6097571]}, "type": "Feature", "id": 637944753, "properties": {"amenity": "bicycle_rental", "capacity": "25", "name": "Mediatheque", "source:date": "2012-05-30", "source": "GrandToulouse", "operator": "JCDecaux", "ref": "96", "network": "V\u00e9l\u00f4Toulouse"}}, {"geometry": {"type": "Point", "coordinates": [1.4150832, 43.5998895]}, "type": "Feature", "id": 417955762, "properties": {"amenity": "bicycle_rental", "capacity": "20", "name": "Grande Bretagne Badiou", "source:date": "2012-05-30", "source": "GrandToulouse", "operator": "JCDecaux", "ref": "245", "network": "V\u00e9l\u00f4Toulouse"}}, {"geometry": {"type": "Point", "coordinates": [1.4808327, 43.5797746]}, "type": "Feature", "id": 338925491, "properties": {"amenity": "bicycle_rental", "capacity": "20", "name": "Potez Saint-Exupery", "source:date": "2012-05-30", "source": "GrandToulouse", "operator": "JCDecaux", "ref": "201", "network": "V\u00e9l\u00f4Toulouse"}}, {"geometry": {"type": "Point", "coordinates": [1.4618621, 43.6276381]}, "type": "Feature", "id": 1343795636, "properties": {"amenity": "bicycle_rental"}}, {"geometry": {"type": "Point", "coordinates": [1.4530345, 43.608918]}, "type": "Feature", "id": 1973931445, "properties": {"amenity": "bicycle_rental", "capacity": "23", "name": "Jaur\u00e8s  -  Stalingrad", "source:date": "2012-05-30", "source": "GrandToulouse", "operator": "JCDecaux", "ref": "62", "network": "V\u00e9l\u00f4Toulouse"}}, {"geometry": {"type": "Point", "coordinates": [1.4274907, 43.5842351]}, "type": "Feature", "id": 573200822, "properties": {"amenity": "bicycle_rental", "capacity": "18", "name": "Muret Lafage", "source:date": "2012-05-30", "source": "GrandToulouse", "operator": "JCDecaux", "ref": "188", "network": "V\u00e9l\u00f4Toulouse"}}, {"geometry": {"type": "Point", "coordinates": [1.4700831, 43.5835393]}, "type": "Feature", "id": 338925495, "properties": {"amenity": "bicycle_rental", "capacity": "20", "name": "Petit Prince Saint-Exupery", "source:date": "2012-05-30", "source": "GrandToulouse", "operator": "JCDecaux", "ref": "203", "network": "V\u00e9l\u00f4Toulouse"}}, {"geometry": {"type": "Point", "coordinates": [1.4452822, 43.6048815]}, "type": "Feature", "id": 1973931448, "properties": {"amenity": "bicycle_rental", "capacity": "22", "name": "Lafayette", "source:date": "2012-05-30", "source": "GrandToulouse", "operator": "JCDecaux", "ref": "2", "start_date": "2007-11-16", "network": "V\u00e9l\u00f4Toulouse"}}, {"geometry": {"type": "Point", "coordinates": [1.4626474, 43.5714822]}, "type": "Feature", "id": 292611001, "properties": {"amenity": "bicycle_rental", "capacity": "20", "name": "IUT Rangueil", "source:date": "2012-05-30", "source": "GrandToulouse", "operator": "JCDecaux", "ref": "229", "network": "V\u00e9l\u00f4Toulouse"}}, {"geometry": {"type": "Point", "coordinates": [1.4320172, 43.609236]}, "type": "Feature", "id": 1973931450, "properties": {"amenity": "bicycle_rental", "capacity": "26", "name": "Lascrosses -  Leclerc", "source:date": "2012-05-30", "source": "GrandToulouse", "operator": "JCDecaux", "ref": "87", "network": "V\u00e9l\u00f4Toulouse"}}, {"geometry": {"type": "Point", "coordinates": [1.4390703, 43.6363547]}, "type": "Feature", "id": 1973931451, "properties": {"amenity": "bicycle_rental", "capacity": "20", "name": "Launaguet Audibert", "source:date": "2012-05-30", "source": "GrandToulouse", "operator": "JCDecaux", "ref": "247", "network": "V\u00e9l\u00f4Toulouse"}}, {"geometry": {"type": "Point", "coordinates": [1.4877655, 43.5834787]}, "type": "Feature", "id": 1973931452, "properties": {"amenity": "bicycle_rental", "capacity": "18", "name": "Le Dormeur La Terrasse", "source:date": "2012-05-30", "source": "GrandToulouse", "operator": "JCDecaux", "ref": "211", "network": "V\u00e9l\u00f4Toulouse"}}, {"geometry": {"type": "Point", "coordinates": [1.4654267, 43.6174635]}, "type": "Feature", "id": 1345142205, "properties": {"amenity": "bicycle_rental", "capacity": "20", "name": "Baillaud Brunaud", "source:date": "2012-05-30", "source": "GrandToulouse", "operator": "JCDecaux", "ref": "177", "network": "V\u00e9l\u00f4Toulouse"}}, {"geometry": {"type": "Point", "coordinates": [1.4413506, 43.6061363]}, "type": "Feature", "id": 1973931454, "properties": {"amenity": "bicycle_rental", "capacity": "15", "name": "Lois -  Esquile", "source:date": "2012-05-30", "source": "GrandToulouse", "operator": "JCDecaux", "ref": "13", "start_date": "2007-11-16", "network": "V\u00e9l\u00f4Toulouse"}}, {"geometry": {"type": "Point", "coordinates": [1.4179209, 43.5873838]}, "type": "Feature", "id": 346337215, "properties": {"addr:housenumber": "237", "amenity": "bicycle_rental", "capacity": "20", "addr:city": "Toulouse", "source": "GrandToulouse", "source:date": "2012-05-30", "network": "V\u00e9l\u00f4Toulouse", "operator": "JCDecaux", "addr:street": "Rue Henri Desbals", "ref": "141", "name": "M\u00e9tro Fontaine Lestang"}}, {"geometry": {"type": "Point", "coordinates": [1.4150828, 43.5948885]}, "type": "Feature", "id": 1973931456, "properties": {"amenity": "bicycle_rental", "capacity": "20", "name": "Lombez Petite Vitesse", "source:date": "2012-05-30", "source": "GrandToulouse", "operator": "JCDecaux", "ref": "193", "network": "V\u00e9l\u00f4Toulouse"}}, {"geometry": {"type": "Point", "coordinates": [1.4344485, 43.6055117]}, "type": "Feature", "id": 395425217, "properties": {"amenity": "bicycle_rental", "capacity": "18", "name": "Duportal - Canal de Brienne", "source:date": "2012-05-30", "source": "GrandToulouse", "operator": "JCDecaux", "ref": "51", "start_date": "2007-11-16", "network": "V\u00e9l\u00f4Toulouse"}}, {"geometry": {"type": "Point", "coordinates": [1.4650297, 43.6383041]}, "type": "Feature", "id": 1973931458, "properties": {"amenity": "bicycle_rental", "capacity": "18", "name": "Mairie Croix Daurade", "source:date": "2012-05-30", "source": "GrandToulouse", "operator": "JCDecaux", "ref": "249", "network": "V\u00e9l\u00f4Toulouse"}}, {"geometry": {"type": "Point", "coordinates": [1.4481998, 43.6285741]}, "type": "Feature", "id": 1973931459, "properties": {"amenity": "bicycle_rental", "capacity": "18", "name": "Maunoury Pisan", "source:date": "2012-05-30", "source": "GrandToulouse", "operator": "JCDecaux", "ref": "153", "network": "V\u00e9l\u00f4Toulouse"}}, {"geometry": {"type": "Point", "coordinates": [1.4507245, 43.6009059]}, "type": "Feature", "id": 1973931460, "properties": {"amenity": "bicycle_rental", "capacity": "20", "name": "Metz  - Rempart Saint \u00c9tienne", "source:date": "2012-05-30", "source": "GrandToulouse", "operator": "JCDecaux", "ref": "99", "network": "V\u00e9l\u00f4Toulouse"}}, {"geometry": {"type": "Point", "coordinates": [1.4145116, 43.5930624]}, "type": "Feature", "id": 1396045558, "properties": {"amenity": "bicycle_rental"}}, {"geometry": {"type": "Point", "coordinates": [1.4204392, 43.6103129]}, "type": "Feature", "id": 1557571014, "properties": {"amenity": "bicycle_rental", "capacity": "20", "name": "Barcelone - Pont Jumeaux", "source:date": "2012-05-30", "source": "GrandToulouse", "operator": "JCDecaux", "ref": "120", "network": "V\u00e9l\u00f4Toulouse"}}, {"geometry": {"type": "Point", "coordinates": [1.4291741, 43.6197022]}, "type": "Feature", "id": 1973931425, "properties": {"amenity": "bicycle_rental", "capacity": "19", "name": "Chaussas Daudet", "source:date": "2012-05-30", "source": "GrandToulouse", "operator": "JCDecaux", "ref": "147", "network": "V\u00e9l\u00f4Toulouse"}}, {"geometry": {"type": "Point", "coordinates": [1.4546519, 43.6001966]}, "type": "Feature", "id": 1313081288, "properties": {"amenity": "bicycle_rental", "capacity": "22", "name": "Place Dupuy", "source:date": "2012-05-30", "source": "GrandToulouse", "operator": "JCDecaux", "ref": "43", "start_date": "2007-11-16", "network": "V\u00e9l\u00f4Toulouse"}}, {"geometry": {"type": "Point", "coordinates": [1.4321935, 43.5899454]}, "type": "Feature", "id": 1973931465, "properties": {"amenity": "bicycle_rental", "capacity": "20", "name": "Muret -  Barthere", "source:date": "2012-05-30", "source": "GrandToulouse", "operator": "JCDecaux", "ref": "104", "network": "V\u00e9l\u00f4Toulouse"}}, {"geometry": {"type": "Point", "coordinates": [1.4413043, 43.6076048]}, "type": "Feature", "id": 1973931466, "properties": {"amenity": "bicycle_rental", "capacity": "12", "name": "Musee Saint Raymond", "source:date": "2012-05-30", "source": "GrandToulouse", "operator": "JCDecaux", "ref": "32", "network": "V\u00e9l\u00f4Toulouse"}}, {"geometry": {"type": "Point", "coordinates": [1.4394584, 43.6073784]}, "type": "Feature", "id": 1973931511, "properties": {"amenity": "bicycle_rental", "capacity": "17", "name": "Salenques", "source:date": "2012-05-30", "source": "GrandToulouse", "operator": "JCDecaux", "ref": "31", "start_date": "2007-11-16", "network": "V\u00e9l\u00f4Toulouse"}}, {"geometry": {"type": "Point", "coordinates": [1.4759398, 43.6238241]}, "type": "Feature", "id": 1973931470, "properties": {"amenity": "bicycle_rental", "capacity": "20", "name": "M\u00e9tro Argoulets", "source:date": "2012-05-30", "source": "GrandToulouse", "operator": "JCDecaux", "ref": "215", "network": "V\u00e9l\u00f4Toulouse"}}, {"geometry": {"type": "Point", "coordinates": [1.4396208, 43.6012701]}, "type": "Feature", "id": 450215889, "properties": {"amenity": "bicycle_rental", "capacity": "28", "name": "Place de La Daurade", "source:date": "2012-05-30", "source": "GrandToulouse", "operator": "JCDecaux", "ref": "11", "start_date": "2007-11-16", "network": "V\u00e9l\u00f4Toulouse"}}, {"geometry": {"type": "Point", "coordinates": [1.4441065, 43.6165651]}, "type": "Feature", "id": 1973931427, "properties": {"amenity": "bicycle_rental", "capacity": "19", "name": "Collignon", "source:date": "2012-05-30", "source": "GrandToulouse", "operator": "JCDecaux", "ref": "148", "network": "V\u00e9l\u00f4Toulouse"}}, {"geometry": {"type": "Point", "coordinates": [1.4522851, 43.6398671]}, "type": "Feature", "id": 1973931476, "properties": {"amenity": "bicycle_rental", "capacity": "30", "name": "M\u00e9tro Bourges Maunoury", "source:date": "2012-05-30", "source": "GrandToulouse", "operator": "JCDecaux", "ref": "175", "network": "V\u00e9l\u00f4Toulouse"}}, {"geometry": {"type": "Point", "coordinates": [1.4238627, 43.6084261]}, "type": "Feature", "id": 1557571029, "properties": {"amenity": "bicycle_rental", "capacity": "15", "name": "Brienne  -  Passerelle", "source:date": "2012-05-30", "source": "GrandToulouse", "operator": "JCDecaux", "ref": "106", "network": "V\u00e9l\u00f4Toulouse"}}, {"geometry": {"type": "Point", "coordinates": [1.4527381, 43.6104728]}, "type": "Feature", "id": 1793296342, "properties": {"amenity": "bicycle_rental", "capacity": "25", "name": "Bonrepos", "source:date": "2012-05-30", "source": "GrandToulouse", "operator": "JCDecaux", "ref": "61", "start_date": "2007-11-16", "network": "V\u00e9l\u00f4Toulouse"}}, {"geometry": {"type": "Point", "coordinates": [1.455933, 43.5945823]}, "type": "Feature", "id": 1557571031, "properties": {"amenity": "bicycle_rental", "capacity": "20", "name": "Captainerie Port  - Saint Sauveur", "source:date": "2012-05-30", "source": "GrandToulouse", "operator": "JCDecaux", "ref": "101", "network": "V\u00e9l\u00f4Toulouse"}}, {"geometry": {"type": "Point", "coordinates": [1.4567293, 43.6114106]}, "type": "Feature", "id": 567799771, "properties": {"amenity": "bicycle_rental", "capacity": "19", "name": "Leduc", "source:date": "2012-05-30", "source": "GrandToulouse", "operator": "JCDecaux", "ref": "5", "network": "V\u00e9l\u00f4Toulouse"}}, {"geometry": {"type": "Point", "coordinates": [1.4239929, 43.5773029]}, "type": "Feature", "id": 1973931484, "properties": {"amenity": "bicycle_rental", "capacity": "20", "name": "Oustalous", "source:date": "2012-05-30", "source": "GrandToulouse", "operator": "JCDecaux", "ref": "190", "network": "V\u00e9l\u00f4Toulouse"}}, {"geometry": {"type": "Point", "coordinates": [1.4471291, 43.5962858]}, "type": "Feature", "id": 1973931485, "properties": {"amenity": "bicycle_rental", "capacity": "19", "name": "Ozenne - Nazareth", "source:date": "2012-05-30", "source": "GrandToulouse", "operator": "JCDecaux", "ref": "45", "start_date": "2007-11-16", "network": "V\u00e9l\u00f4Toulouse"}}, {"geometry": {"type": "Point", "coordinates": [1.4404268, 43.6046044]}, "type": "Feature", "id": 1973931486, "properties": {"amenity": "bicycle_rental", "capacity": "23", "name": "Pargaminieres", "source:date": "2012-05-30", "source": "GrandToulouse", "operator": "JCDecaux", "ref": "12", "start_date": "2007-11-16", "network": "V\u00e9l\u00f4Toulouse"}}, {"geometry": {"type": "Point", "coordinates": [1.4350626, 43.59326]}, "type": "Feature", "id": 1973931429, "properties": {"amenity": "bicycle_rental", "capacity": "24", "name": "Cours Dillon", "source:date": "2012-05-30", "source": "GrandToulouse", "operator": "JCDecaux", "ref": "71", "network": "V\u00e9l\u00f4Toulouse"}}, {"geometry": {"type": "Point", "coordinates": [1.449303, 43.6000535]}, "type": "Feature", "id": 1973931488, "properties": {"amenity": "bicycle_rental", "capacity": "20", "name": "Place Saint \u00c9tienne", "source:date": "2012-05-30", "source": "GrandToulouse", "operator": "JCDecaux", "ref": "24", "start_date": "2007-11-16", "network": "V\u00e9l\u00f4Toulouse"}}, {"geometry": {"type": "Point", "coordinates": [1.4758524, 43.5816386]}, "type": "Feature", "id": 884714977, "properties": {"amenity": "bicycle_rental", "capacity": "17", "name": "Saint-Exuperi \u00c9cole Courrege", "source:date": "2012-05-30", "source": "GrandToulouse", "operator": "JCDecaux", "ref": "202", "network": "V\u00e9l\u00f4Toulouse"}}, {"geometry": {"type": "Point", "coordinates": [1.4522802, 43.6111353]}, "type": "Feature", "id": 674058210, "properties": {"amenity": "bicycle_rental", "name": "Maison du V\u00e9lo"}}, {"geometry": {"type": "Point", "coordinates": [1.4464887, 43.6057674]}, "type": "Feature", "id": 1973931491, "properties": {"amenity": "bicycle_rental", "capacity": "26", "name": "Place Victor Hugo", "source:date": "2012-05-30", "source": "GrandToulouse", "operator": "JCDecaux", "ref": "7", "start_date": "2007-11-16", "network": "V\u00e9l\u00f4Toulouse"}}, {"geometry": {"type": "Point", "coordinates": [1.4356191, 43.6207082]}, "type": "Feature", "id": 1973931464, "properties": {"amenity": "bicycle_rental", "capacity": "20", "name": "Minimes - Marche Au Cochons", "source:date": "2012-05-30", "source": "GrandToulouse", "operator": "JCDecaux", "ref": "133", "network": "V\u00e9l\u00f4Toulouse"}}, {"geometry": {"type": "Point", "coordinates": [1.4339101, 43.5926436]}, "type": "Feature", "id": 1973931493, "properties": {"amenity": "bicycle_rental", "capacity": "18", "name": "Place du Fer A Cheval", "source:date": "2012-05-30", "source": "GrandToulouse", "operator": "JCDecaux", "ref": "70", "network": "V\u00e9l\u00f4Toulouse"}}, {"geometry": {"type": "Point", "coordinates": [1.4696247, 43.5768745]}, "type": "Feature", "id": 292611046, "properties": {"amenity": "bicycle_rental", "capacity": "18", "name": "Lespinet Herbettes", "source:date": "2012-05-30", "source": "GrandToulouse", "operator": "JCDecaux", "ref": "239", "network": "V\u00e9l\u00f4Toulouse"}}, {"geometry": {"type": "Point", "coordinates": [1.4598495, 43.5876388]}, "type": "Feature", "id": 1973931495, "properties": {"amenity": "bicycle_rental", "capacity": "20", "name": "Pont des Demoiselles", "source:date": "2012-05-30", "source": "GrandToulouse", "operator": "JCDecaux", "ref": "98", "network": "V\u00e9l\u00f4Toulouse"}}, {"geometry": {"type": "Point", "coordinates": [1.4565999, 43.5964069]}, "type": "Feature", "id": 1973931496, "properties": {"amenity": "bicycle_rental", "capacity": "20", "name": "Port Saint Sauveur", "source:date": "2012-05-30", "source": "GrandToulouse", "operator": "JCDecaux", "ref": "15", "network": "V\u00e9l\u00f4Toulouse"}}, {"geometry": {"type": "Point", "coordinates": [1.4112109, 43.6145657]}, "type": "Feature", "id": 1973931497, "properties": {"amenity": "bicycle_rental", "capacity": "18", "name": "Puccini Blagnac", "source:date": "2012-05-30", "source": "GrandToulouse", "operator": "JCDecaux", "ref": "219", "network": "V\u00e9l\u00f4Toulouse"}}, {"geometry": {"type": "Point", "coordinates": [1.4375404, 43.6337549]}, "type": "Feature", "id": 1973931499, "properties": {"amenity": "bicycle_rental", "capacity": "18", "name": "Raimbaud Colette", "source:date": "2012-05-30", "source": "GrandToulouse", "operator": "JCDecaux", "ref": "242", "network": "V\u00e9l\u00f4Toulouse"}}, {"geometry": {"type": "Point", "coordinates": [1.4548462, 43.5766426]}, "type": "Feature", "id": 1973931500, "properties": {"amenity": "bicycle_rental", "capacity": "16", "name": "Rangueil Bedouce", "source:date": "2012-05-30", "source": "GrandToulouse", "operator": "JCDecaux", "ref": "161", "network": "V\u00e9l\u00f4Toulouse"}}, {"geometry": {"type": "Point", "coordinates": [1.4438358, 43.6357875]}, "type": "Feature", "id": 1973931501, "properties": {"amenity": "bicycle_rental", "capacity": "18", "name": "Renan Vitry", "source:date": "2012-05-30", "source": "GrandToulouse", "operator": "JCDecaux", "ref": "244", "network": "V\u00e9l\u00f4Toulouse"}}, {"geometry": {"type": "Point", "coordinates": [1.4656054, 43.6271953]}, "type": "Feature", "id": 1973931502, "properties": {"amenity": "bicycle_rental", "capacity": "15", "name": "Roubichou Arles", "source:date": "2012-05-30", "source": "GrandToulouse", "operator": "JCDecaux", "ref": "185", "network": "V\u00e9l\u00f4Toulouse"}}, {"geometry": {"type": "Point", "coordinates": [1.4464431, 43.5881823]}, "type": "Feature", "id": 1973931503, "properties": {"amenity": "bicycle_rental", "capacity": "15", "name": "Saint-Michel - Notre-Dame", "source:date": "2012-05-30", "source": "GrandToulouse", "operator": "JCDecaux", "ref": "116", "network": "V\u00e9l\u00f4Toulouse"}}, {"geometry": {"type": "Point", "coordinates": [1.4410894, 43.609035]}, "type": "Feature", "id": 1973931504, "properties": {"amenity": "bicycle_rental", "capacity": "13", "name": "Saint Sernin -  Gatien Arnoult", "source:date": "2012-05-30", "source": "GrandToulouse", "operator": "JCDecaux", "ref": "55", "start_date": "2007-11-16", "network": "V\u00e9l\u00f4Toulouse"}}, {"geometry": {"type": "Point", "coordinates": [1.4396878, 43.625603]}, "type": "Feature", "id": 1973931432, "properties": {"amenity": "bicycle_rental", "capacity": "20", "name": "Curie Campistron", "source:date": "2012-05-30", "source": "GrandToulouse", "operator": "JCDecaux", "ref": "150", "network": "V\u00e9l\u00f4Toulouse"}}, {"geometry": {"type": "Point", "coordinates": [1.4347657, 43.6085736]}, "type": "Feature", "id": 1557571060, "properties": {"amenity": "bicycle_rental", "capacity": "21", "name": "Duportal -  Cit\u00e9 Administrative", "source:date": "2012-05-30", "source": "GrandToulouse", "operator": "JCDecaux", "ref": "52", "start_date": "2007-11-16", "network": "V\u00e9l\u00f4Toulouse"}}, {"geometry": {"type": "Point", "coordinates": [1.4420322, 43.602723]}, "type": "Feature", "id": 1973931510, "properties": {"amenity": "bicycle_rental", "capacity": "20", "network": "V\u00e9l\u00f4Toulouse", "source:date": "2012-05-30", "source": "GrandToulouse", "operator": "JCDecaux", "addr:street": "Rue Sainte-Ursule", "ref": "4", "name": "Sainte-Ursule"}}, {"geometry": {"type": "Point", "coordinates": [1.4624259, 43.5741679]}, "type": "Feature", "id": 292611063, "properties": {"amenity": "bicycle_rental", "capacity": "20", "name": "M\u00e9tro Rangueil", "source:date": "2012-05-30", "source": "GrandToulouse", "operator": "JCDecaux", "ref": "166", "network": "V\u00e9l\u00f4Toulouse"}}, {"geometry": {"type": "Point", "coordinates": [1.4416571, 43.5899414]}, "type": "Feature", "id": 1437254648, "properties": {"amenity": "bicycle_rental", "capacity": "20", "name": "H\u00f4tel de Region", "source:date": "2012-05-30", "source": "GrandToulouse", "operator": "JCDecaux", "ref": "154", "network": "V\u00e9l\u00f4Toulouse"}}, {"geometry": {"type": "Point", "coordinates": [1.4288302, 43.6122931]}, "type": "Feature", "id": 1973931513, "properties": {"amenity": "bicycle_rental", "capacity": "20", "name": "Sebastopol -  Ritay", "source:date": "2012-05-30", "source": "GrandToulouse", "operator": "JCDecaux", "ref": "108", "network": "V\u00e9l\u00f4Toulouse"}}, {"geometry": {"type": "Point", "coordinates": [1.4380433, 43.6142278]}, "type": "Feature", "id": 1973931514, "properties": {"amenity": "bicycle_rental", "capacity": "18", "name": "Serres -  Cabanel", "source:date": "2012-05-30", "source": "GrandToulouse", "operator": "JCDecaux", "ref": "110", "network": "V\u00e9l\u00f4Toulouse"}}, {"geometry": {"type": "Point", "coordinates": [1.4427352, 43.6091527]}, "type": "Feature", "id": 1288275455, "properties": {"amenity": "bicycle_rental", "capacity": "14", "name": "Saint Sernin  -  Merly", "source:date": "2012-05-30", "source": "GrandToulouse", "operator": "JCDecaux", "ref": "56", "start_date": "2007-11-16", "network": "V\u00e9l\u00f4Toulouse"}}, {"geometry": {"type": "Point", "coordinates": [1.4524568, 43.5732815]}, "type": "Feature", "id": 471542780, "properties": {"amenity": "bicycle_rental", "capacity": "17", "name": "Theatre Jules Julien", "source:date": "2012-05-30", "source": "GrandToulouse", "operator": "JCDecaux", "ref": "160", "network": "V\u00e9l\u00f4Toulouse"}}, {"geometry": {"type": "Point", "coordinates": [1.455951, 43.5897092]}, "type": "Feature", "id": 1973931434, "properties": {"amenity": "bicycle_rental", "capacity": "16", "name": "Demoiselles - Begue", "source:date": "2012-05-30", "source": "GrandToulouse", "operator": "JCDecaux", "ref": "127", "network": "V\u00e9l\u00f4Toulouse"}}, {"geometry": {"type": "Point", "coordinates": [1.402137, 43.5745712]}, "type": "Feature", "id": 1973931518, "properties": {"amenity": "bicycle_rental", "capacity": "20", "name": "Tabar Universit\u00e9", "source:date": "2012-05-30", "source": "GrandToulouse", "operator": "JCDecaux", "ref": "220", "network": "V\u00e9l\u00f4Toulouse"}}, {"geometry": {"type": "Point", "coordinates": [1.4473756, 43.585843]}, "type": "Feature", "id": 366580309, "properties": {"addr:housenumber": "18 B", "amenity": "bicycle_rental", "capacity": "20", "addr:city": "Toulouse", "source": "GrandToulouse", "source:date": "2012-05-30", "network": "V\u00e9l\u00f4Toulouse", "operator": "JCDecaux", "addr:street": "Grande rue Saint-Michel", "ref": "128", "name": "Maison D'arret Saint Michel"}}]}