{"type": "FeatureCollection", "features": [{"geometry": {"type": "Point", "coordinates": [1.4632229, 43.5609723]}, "type": "Feature", "id": 231750682, "properties": {"name": "Universit\u00e9 Paul Sabatier", "bus": "yes", "man_made": "surveillance", "lines_prop": {"179514": {"ref": "B", "from": "Borderouge", "network": "fr_tisseo", "color": "#FFD900", "opening_hours": "Mo-Th 05:15-24:00; Fr-Sa 05:15-24:00, 00:00-01:00; Su 05:15-24:00", "route": "subway", "description": "Borderouge - Ramonville", "to": "Ramonville", "operator": "Tiss\u00e9o", "type": "route", "wheelchair": "yes", "name": "M\u00e9tro Ligne B Direction Ramonville"}, "1557171": {"ref": "B", "from": "Ramonville", "name": "M\u00e9tro Ligne B Direction Borderouge", "color": "#FFD900", "opening_hours": "Mo-Th 05:15-24:00; Fr-Sa 05:15-24:00, 00:00-01:00; Su 05:15-24:00", "route": "subway", "to": "Borderouge", "operator": "Tiss\u00e9o", "type": "route", "wheelchair": "yes", "network": "fr_tisseo"}}, "public_transport": "stop_position", "operator": "Tiss\u00e9o", "railway": "station", "subway": "yes"}}, {"geometry": {"type": "Point", "coordinates": [1.4633846, 43.6152782]}, "type": "Feature", "id": 248512541, "properties": {"name": "Jolimont", "bus": "yes", "man_made": "surveillance", "lines_prop": {"179515": {"ref": "A", "from": "Balma Gramont", "name": "M\u00e9tro Ligne A Direction Basso Cambo", "color": "#E40F1F", "opening_hours": "Mo-Th 05:15-24:00; Fr-Sa 05:15-24:00, 00:00-01:00; Su 05:15-24:00", "route": "subway", "to": "Basso Cambo", "operator": "Tiss\u00e9o", "type": "route", "wheelchair": "yes", "network": "fr_tisseo"}, "1557126": {"ref": "A", "from": "Basso Cambo", "name": "M\u00e9tro Ligne A Direction Balma Gramont", "color": "#E40F1F", "opening_hours": "Mo-Th 05:15-24:00; Fr-Sa 05:15-24:00, 00:00-01:00; Su 05:15-24:00", "route": "subway", "to": "Balma Gramont", "operator": "Tiss\u00e9o", "type": "route", "wheelchair": "yes", "network": "fr_tisseo"}}, "public_transport": "stop_position", "operator": "Tiss\u00e9o", "railway": "station", "subway": "yes"}}, {"geometry": {"type": "Point", "coordinates": [1.3982966, 43.5660825]}, "type": "Feature", "id": 248534048, "properties": {"name": "Bellefontaine", "bus": "yes", "man_made": "surveillance", "lines_prop": {"179515": {"ref": "A", "from": "Balma Gramont", "name": "M\u00e9tro Ligne A Direction Basso Cambo", "color": "#E40F1F", "opening_hours": "Mo-Th 05:15-24:00; Fr-Sa 05:15-24:00, 00:00-01:00; Su 05:15-24:00", "route": "subway", "to": "Basso Cambo", "operator": "Tiss\u00e9o", "type": "route", "wheelchair": "yes", "network": "fr_tisseo"}, "1557126": {"ref": "A", "from": "Basso Cambo", "name": "M\u00e9tro Ligne A Direction Balma Gramont", "color": "#E40F1F", "opening_hours": "Mo-Th 05:15-24:00; Fr-Sa 05:15-24:00, 00:00-01:00; Su 05:15-24:00", "route": "subway", "to": "Balma Gramont", "operator": "Tiss\u00e9o", "type": "route", "wheelchair": "yes", "network": "fr_tisseo"}}, "public_transport": "stop_position", "operator": "Tiss\u00e9o", "railway": "station", "subway": "yes"}}, {"geometry": {"type": "Point", "coordinates": [1.4152039, 43.5835153]}, "type": "Feature", "id": 248533539, "properties": {"name": "Mermoz", "man_made": "surveillance", "lines_prop": {"179515": {"ref": "A", "from": "Balma Gramont", "name": "M\u00e9tro Ligne A Direction Basso Cambo", "color": "#E40F1F", "opening_hours": "Mo-Th 05:15-24:00; Fr-Sa 05:15-24:00, 00:00-01:00; Su 05:15-24:00", "route": "subway", "to": "Basso Cambo", "operator": "Tiss\u00e9o", "type": "route", "wheelchair": "yes", "network": "fr_tisseo"}, "1557126": {"ref": "A", "from": "Basso Cambo", "name": "M\u00e9tro Ligne A Direction Balma Gramont", "color": "#E40F1F", "opening_hours": "Mo-Th 05:15-24:00; Fr-Sa 05:15-24:00, 00:00-01:00; Su 05:15-24:00", "route": "subway", "to": "Balma Gramont", "operator": "Tiss\u00e9o", "type": "route", "wheelchair": "yes", "network": "fr_tisseo"}}, "public_transport": "stop_position", "operator": "Tiss\u00e9o", "railway": "station", "subway": "yes"}}, {"geometry": {"type": "Point", "coordinates": [1.4525675, 43.6407791]}, "type": "Feature", "id": 231716614, "properties": {"name": "Borderouge", "name:oc": "B\u00f2rda Roja", "bus": "yes", "man_made": "surveillance", "lines_prop": {"179514": {"ref": "B", "from": "Borderouge", "network": "fr_tisseo", "color": "#FFD900", "opening_hours": "Mo-Th 05:15-24:00; Fr-Sa 05:15-24:00, 00:00-01:00; Su 05:15-24:00", "route": "subway", "description": "Borderouge - Ramonville", "to": "Ramonville", "operator": "Tiss\u00e9o", "type": "route", "wheelchair": "yes", "name": "M\u00e9tro Ligne B Direction Ramonville"}, "1557171": {"ref": "B", "from": "Ramonville", "name": "M\u00e9tro Ligne B Direction Borderouge", "color": "#FFD900", "opening_hours": "Mo-Th 05:15-24:00; Fr-Sa 05:15-24:00, 00:00-01:00; Su 05:15-24:00", "route": "subway", "to": "Borderouge", "operator": "Tiss\u00e9o", "type": "route", "wheelchair": "yes", "network": "fr_tisseo"}}, "public_transport": "stop_position", "operator": "Tiss\u00e9o", "railway": "station", "subway": "yes"}}, {"geometry": {"type": "Point", "coordinates": [-1.4346371, 46.7883157]}, "type": "Feature", "id": 452936230, "properties": {"source": "cadastre-dgi-fr source : Direction G\u00e9n\u00e9rale des Imp\u00f4ts - Cadastre. Mise \u00e0 jour : 2008", "railway": "station", "name": "Belleville-Vend\u00e9e"}}, {"geometry": {"type": "Point", "coordinates": [1.4121307, 43.5798869]}, "type": "Feature", "id": 248533545, "properties": {"name": "Bagatelle", "bus": "yes", "man_made": "surveillance", "lines_prop": {"179515": {"ref": "A", "from": "Balma Gramont", "name": "M\u00e9tro Ligne A Direction Basso Cambo", "color": "#E40F1F", "opening_hours": "Mo-Th 05:15-24:00; Fr-Sa 05:15-24:00, 00:00-01:00; Su 05:15-24:00", "route": "subway", "to": "Basso Cambo", "operator": "Tiss\u00e9o", "type": "route", "wheelchair": "yes", "network": "fr_tisseo"}, "1557126": {"ref": "A", "from": "Basso Cambo", "name": "M\u00e9tro Ligne A Direction Balma Gramont", "color": "#E40F1F", "opening_hours": "Mo-Th 05:15-24:00; Fr-Sa 05:15-24:00, 00:00-01:00; Su 05:15-24:00", "route": "subway", "to": "Balma Gramont", "operator": "Tiss\u00e9o", "type": "route", "wheelchair": "yes", "network": "fr_tisseo"}}, "public_transport": "stop_position", "operator": "yes", "railway": "station"}}, {"geometry": {"type": "Point", "coordinates": [1.4539355, 43.6114097]}, "type": "Feature", "id": 340299831, "properties": {"operator": "SNCF", "railway": "station", "uic_ref": "8700065", "name": "Toulouse-Matabiau", "lines_prop": {"1531520": {"operator": "SNCF", "ref": "D", "route": "train", "type": "route", "name": "Train Ligne D"}, "406826": {"network": "Corail Intercit\u00e9s - TER ", "service": "long_distance", "ref": "Intercit\u00e9s Bordeaux - Toulouse", "route": "train", "description": "Intercit\u00e9s Nantes - Toulouse", "operator": "SNCF", "line": "rail", "type": "route", "name": "Intercit\u00e9s Bordeaux - Langon - Agen - Toulouse"}}}}, {"geometry": {"type": "Point", "coordinates": [1.4827089, 43.6291183]}, "type": "Feature", "id": 333182010, "properties": {"name": "Balma Gramont", "wheelchair": "yes", "man_made": "surveillance", "lines_prop": {"179515": {"ref": "A", "from": "Balma Gramont", "name": "M\u00e9tro Ligne A Direction Basso Cambo", "color": "#E40F1F", "opening_hours": "Mo-Th 05:15-24:00; Fr-Sa 05:15-24:00, 00:00-01:00; Su 05:15-24:00", "route": "subway", "to": "Basso Cambo", "operator": "Tiss\u00e9o", "type": "route", "wheelchair": "yes", "network": "fr_tisseo"}, "1557126": {"ref": "A", "from": "Basso Cambo", "name": "M\u00e9tro Ligne A Direction Balma Gramont", "color": "#E40F1F", "opening_hours": "Mo-Th 05:15-24:00; Fr-Sa 05:15-24:00, 00:00-01:00; Su 05:15-24:00", "route": "subway", "to": "Balma Gramont", "operator": "Tiss\u00e9o", "type": "route", "wheelchair": "yes", "network": "fr_tisseo"}}, "subway": "yes", "operator": "Tiss\u00e9o", "railway": "station", "public_transport": "stop_position"}}, {"geometry": {"type": "Point", "coordinates": [1.2519529, 43.3563239]}, "type": "Feature", "id": 805899837, "properties": {"railway": "station", "name": "Longages-No\u00e9"}}, {"geometry": {"type": "Point", "coordinates": [-0.5553414, 44.7998149]}, "type": "Feature", "id": 926437961, "properties": {"source": "cadastre-dgi-fr source : Direction G\u00e9n\u00e9rale des Imp\u00f4ts - Cadastre. Mise \u00e0 jour : 2010", "railway": "station", "uic_ref": "8702797", "name": "B\u00e8gles Gare", "lines_prop": {"406826": {"network": "Corail Intercit\u00e9s - TER ", "service": "long_distance", "ref": "Intercit\u00e9s Bordeaux - Toulouse", "route": "train", "description": "Intercit\u00e9s Nantes - Toulouse", "operator": "SNCF", "line": "rail", "type": "route", "name": "Intercit\u00e9s Bordeaux - Langon - Agen - Toulouse"}}}}, {"geometry": {"type": "Point", "coordinates": [-0.3589057, 44.6489664]}, "type": "Feature", "id": 355358794, "properties": {"railway": "station", "uic_ref": "8704246", "name": "Podensac"}}, {"geometry": {"type": "Point", "coordinates": [1.3889592, 43.5279746]}, "type": "Feature", "id": 194741325, "properties": {"railway": "station", "name": "Portet-Saint-Simon", "lines_prop": {"1531520": {"operator": "SNCF", "ref": "D", "route": "train", "type": "route", "name": "Train Ligne D"}}}}, {"geometry": {"type": "Point", "coordinates": [1.402032, 43.5745945]}, "type": "Feature", "id": 248533582, "properties": {"name": "Mirail Universit\u00e9", "bus": "yes", "man_made": "surveillance", "lines_prop": {"179515": {"ref": "A", "from": "Balma Gramont", "name": "M\u00e9tro Ligne A Direction Basso Cambo", "color": "#E40F1F", "opening_hours": "Mo-Th 05:15-24:00; Fr-Sa 05:15-24:00, 00:00-01:00; Su 05:15-24:00", "route": "subway", "to": "Basso Cambo", "operator": "Tiss\u00e9o", "type": "route", "wheelchair": "yes", "network": "fr_tisseo"}, "1557126": {"ref": "A", "from": "Basso Cambo", "name": "M\u00e9tro Ligne A Direction Balma Gramont", "color": "#E40F1F", "opening_hours": "Mo-Th 05:15-24:00; Fr-Sa 05:15-24:00, 00:00-01:00; Su 05:15-24:00", "route": "subway", "to": "Balma Gramont", "operator": "Tiss\u00e9o", "type": "route", "wheelchair": "yes", "network": "fr_tisseo"}}, "public_transport": "stop_position", "operator": "Tiss\u00e9o", "railway": "station", "subway": "yes"}}, {"geometry": {"type": "Point", "coordinates": [1.4230059, 43.59639]}, "type": "Feature", "id": 57198174, "properties": {"name": "Patte d'Oie", "name:oc": "P\u00e8 d'Auco", "bus": "yes", "man_made": "surveillance", "lines_prop": {"179515": {"ref": "A", "from": "Balma Gramont", "name": "M\u00e9tro Ligne A Direction Basso Cambo", "color": "#E40F1F", "opening_hours": "Mo-Th 05:15-24:00; Fr-Sa 05:15-24:00, 00:00-01:00; Su 05:15-24:00", "route": "subway", "to": "Basso Cambo", "operator": "Tiss\u00e9o", "type": "route", "wheelchair": "yes", "network": "fr_tisseo"}, "1557126": {"ref": "A", "from": "Basso Cambo", "name": "M\u00e9tro Ligne A Direction Balma Gramont", "color": "#E40F1F", "opening_hours": "Mo-Th 05:15-24:00; Fr-Sa 05:15-24:00, 00:00-01:00; Su 05:15-24:00", "route": "subway", "to": "Balma Gramont", "operator": "Tiss\u00e9o", "type": "route", "wheelchair": "yes", "network": "fr_tisseo"}}, "public_transport": "stop_position", "operator": "Tiss\u00e9o", "railway": "station", "subway": "yes"}}, {"geometry": {"type": "Point", "coordinates": [-0.4500782, 44.7011452]}, "type": "Feature", "id": 345305194, "properties": {"railway": "station", "uic_ref": "8702791", "name": "Beautiran"}}, {"geometry": {"type": "Point", "coordinates": [-1.3138478, 47.1079633]}, "type": "Feature", "id": 1536657515, "properties": {"railway": "station", "uic_ref": "8748143", "name": "Gorges"}}, {"geometry": {"type": "Point", "coordinates": [1.3835303, 43.5966339]}, "type": "Feature", "id": 54548597, "properties": {"railway": "station", "name": "Lardenne", "lines_prop": {"179516": {"from": "Ar\u00e8nes", "name": "Train Ligne C Direction Colomiers", "color": "#F1821A", "ref": "C", "route": "train", "to": "Colomiers", "operator": "SNCF", "type": "route", "network": "fr_tisseo"}, "1557095": {"from": "Colomiers", "name": "Train Ligne C Direction Ar\u00e8nes", "color": "#F1821A", "ref": "C", "route": "train", "to": "Ar\u00e8nes", "operator": "SNCF", "type": "route", "network": "fr_tisseo"}}}}, {"geometry": {"type": "Point", "coordinates": [1.1143654, 44.0403415]}, "type": "Feature", "id": 512325752, "properties": {"railway": "station", "name": "Castelsarrasin"}}, {"geometry": {"type": "Point", "coordinates": [1.4696735, 43.6199318]}, "type": "Feature", "id": 314282624, "properties": {"name": "Roseraie", "bus": "yes", "man_made": "surveillance", "lines_prop": {"179515": {"ref": "A", "from": "Balma Gramont", "name": "M\u00e9tro Ligne A Direction Basso Cambo", "color": "#E40F1F", "opening_hours": "Mo-Th 05:15-24:00; Fr-Sa 05:15-24:00, 00:00-01:00; Su 05:15-24:00", "route": "subway", "to": "Basso Cambo", "operator": "Tiss\u00e9o", "type": "route", "wheelchair": "yes", "network": "fr_tisseo"}, "1557126": {"ref": "A", "from": "Basso Cambo", "name": "M\u00e9tro Ligne A Direction Balma Gramont", "color": "#E40F1F", "opening_hours": "Mo-Th 05:15-24:00; Fr-Sa 05:15-24:00, 00:00-01:00; Su 05:15-24:00", "route": "subway", "to": "Balma Gramont", "operator": "Tiss\u00e9o", "type": "route", "wheelchair": "yes", "network": "fr_tisseo"}}, "public_transport": "stop_position", "operator": "Tiss\u00e9o", "railway": "station", "subway": "yes"}}, {"geometry": {"type": "Point", "coordinates": [1.4763835, 43.5557774]}, "type": "Feature", "id": 231752329, "properties": {"name": "Ramonville", "bus": "yes", "man_made": "surveillance", "search_name": "Ramonville M\u00e9tro", "lines_prop": {"179514": {"ref": "B", "from": "Borderouge", "network": "fr_tisseo", "color": "#FFD900", "opening_hours": "Mo-Th 05:15-24:00; Fr-Sa 05:15-24:00, 00:00-01:00; Su 05:15-24:00", "route": "subway", "description": "Borderouge - Ramonville", "to": "Ramonville", "operator": "Tiss\u00e9o", "type": "route", "wheelchair": "yes", "name": "M\u00e9tro Ligne B Direction Ramonville"}, "1557171": {"ref": "B", "from": "Ramonville", "name": "M\u00e9tro Ligne B Direction Borderouge", "color": "#FFD900", "opening_hours": "Mo-Th 05:15-24:00; Fr-Sa 05:15-24:00, 00:00-01:00; Su 05:15-24:00", "route": "subway", "to": "Borderouge", "operator": "Tiss\u00e9o", "type": "route", "wheelchair": "yes", "network": "fr_tisseo"}}, "public_transport": "stop_position", "operator": "Tiss\u00e9o", "railway": "station", "subway": "yes"}}, {"geometry": {"type": "Point", "coordinates": [1.4488024, 43.6057364]}, "type": "Feature", "id": 231747949, "properties": {"name": "Jean Jaur\u00e8s", "bus": "yes", "man_made": "surveillance", "lines_prop": {"179514": {"ref": "B", "from": "Borderouge", "network": "fr_tisseo", "color": "#FFD900", "opening_hours": "Mo-Th 05:15-24:00; Fr-Sa 05:15-24:00, 00:00-01:00; Su 05:15-24:00", "route": "subway", "description": "Borderouge - Ramonville", "to": "Ramonville", "operator": "Tiss\u00e9o", "type": "route", "wheelchair": "yes", "name": "M\u00e9tro Ligne B Direction Ramonville"}, "179515": {"ref": "A", "from": "Balma Gramont", "name": "M\u00e9tro Ligne A Direction Basso Cambo", "color": "#E40F1F", "opening_hours": "Mo-Th 05:15-24:00; Fr-Sa 05:15-24:00, 00:00-01:00; Su 05:15-24:00", "route": "subway", "to": "Basso Cambo", "operator": "Tiss\u00e9o", "type": "route", "wheelchair": "yes", "network": "fr_tisseo"}, "1557171": {"ref": "B", "from": "Ramonville", "name": "M\u00e9tro Ligne B Direction Borderouge", "color": "#FFD900", "opening_hours": "Mo-Th 05:15-24:00; Fr-Sa 05:15-24:00, 00:00-01:00; Su 05:15-24:00", "route": "subway", "to": "Borderouge", "operator": "Tiss\u00e9o", "type": "route", "wheelchair": "yes", "network": "fr_tisseo"}, "1557126": {"ref": "A", "from": "Basso Cambo", "name": "M\u00e9tro Ligne A Direction Balma Gramont", "color": "#E40F1F", "opening_hours": "Mo-Th 05:15-24:00; Fr-Sa 05:15-24:00, 00:00-01:00; Su 05:15-24:00", "route": "subway", "to": "Balma Gramont", "operator": "Tiss\u00e9o", "type": "route", "wheelchair": "yes", "network": "fr_tisseo"}}, "public_transport": "stop_position", "operator": "Tiss\u00e9o", "railway": "station", "subway": "yes"}}, {"geometry": {"type": "Point", "coordinates": [0.1682415, 44.5032054]}, "type": "Feature", "id": 232372368, "properties": {"railway": "station", "name": "Marmande", "lines_prop": {"406826": {"network": "Corail Intercit\u00e9s - TER ", "service": "long_distance", "ref": "Intercit\u00e9s Bordeaux - Toulouse", "route": "train", "description": "Intercit\u00e9s Nantes - Toulouse", "operator": "SNCF", "line": "rail", "type": "route", "name": "Intercit\u00e9s Bordeaux - Langon - Agen - Toulouse"}}}}, {"geometry": {"type": "Point", "coordinates": [-0.963683, 45.9473956]}, "type": "Feature", "id": 324039828, "properties": {"railway": "station", "name": "Rochefort", "lines_prop": {"406826": {"network": "Corail Intercit\u00e9s - TER ", "service": "long_distance", "ref": "Intercit\u00e9s Bordeaux - Toulouse", "route": "train", "description": "Intercit\u00e9s Nantes - Toulouse", "operator": "SNCF", "line": "rail", "type": "route", "name": "Intercit\u00e9s Bordeaux - Langon - Agen - Toulouse"}}}}, {"geometry": {"type": "Point", "coordinates": [-1.4780014, 47.186027]}, "type": "Feature", "id": 485207701, "properties": {"wheelchair": "yes", "uic_ref": "8748140", "railway": "station", "name": "Vertou"}}, {"geometry": {"type": "Point", "coordinates": [-0.5336483, 44.8563092]}, "type": "Feature", "id": 280322841, "properties": {"railway": "station", "rail": "yes", "name": "Cenon", "public_transport": "stop_position"}}, {"geometry": {"type": "Point", "coordinates": [0.2389424, 43.1836526]}, "type": "Feature", "id": 294901403, "properties": {"railway": "station", "name": "Tournay"}}, {"geometry": {"type": "Point", "coordinates": [0.3143463, 44.3929045]}, "type": "Feature", "id": 232372387, "properties": {"railway": "station", "name": "Tonneins"}}, {"geometry": {"type": "Point", "coordinates": [-1.3712256, 46.9069151]}, "type": "Feature", "id": 1896000268, "properties": {"railway": "station", "name": "Herbergement"}}, {"geometry": {"type": "Point", "coordinates": [1.4444268, 43.5924473]}, "type": "Feature", "id": 298873524, "properties": {"name": "Palais de Justice", "bus": "yes", "man_made": "surveillance", "lines_prop": {"179514": {"ref": "B", "from": "Borderouge", "network": "fr_tisseo", "color": "#FFD900", "opening_hours": "Mo-Th 05:15-24:00; Fr-Sa 05:15-24:00, 00:00-01:00; Su 05:15-24:00", "route": "subway", "description": "Borderouge - Ramonville", "to": "Ramonville", "operator": "Tiss\u00e9o", "type": "route", "wheelchair": "yes", "name": "M\u00e9tro Ligne B Direction Ramonville"}, "1557171": {"ref": "B", "from": "Ramonville", "name": "M\u00e9tro Ligne B Direction Borderouge", "color": "#FFD900", "opening_hours": "Mo-Th 05:15-24:00; Fr-Sa 05:15-24:00, 00:00-01:00; Su 05:15-24:00", "route": "subway", "to": "Borderouge", "operator": "Tiss\u00e9o", "type": "route", "wheelchair": "yes", "network": "fr_tisseo"}}, "public_transport": "stop_position", "operator": "Tiss\u00e9o", "railway": "station", "subway": "yes"}}, {"geometry": {"type": "Point", "coordinates": [1.3412669, 44.0142804]}, "type": "Feature", "id": 232386757, "properties": {"railway": "station", "uic_ref": "8700057", "name": "Montauban", "lines_prop": {"406826": {"network": "Corail Intercit\u00e9s - TER ", "service": "long_distance", "ref": "Intercit\u00e9s Bordeaux - Toulouse", "route": "train", "description": "Intercit\u00e9s Nantes - Toulouse", "operator": "SNCF", "line": "rail", "type": "route", "name": "Intercit\u00e9s Bordeaux - Langon - Agen - Toulouse"}}}}, {"geometry": {"type": "Point", "coordinates": [-1.2865308, 47.0859458]}, "type": "Feature", "id": 1290529478, "properties": {"note": "Je ne suis pas s\u00fbr du code UIC", "operator": "sncf", "railway": "station", "uic_ref": "8748144", "name": "Clisson"}}, {"geometry": {"type": "Point", "coordinates": [0.0695284, 43.2402728]}, "type": "Feature", "id": 294893260, "properties": {"railway": "station", "name": "Tarbes"}}, {"geometry": {"type": "Point", "coordinates": [-1.4358096, 46.6721205]}, "type": "Feature", "id": 236936915, "properties": {"uic_ref": "8748601", "name": "La Roche-sur-Yon", "wheelchair": "yes", "lines_prop": {"406826": {"network": "Corail Intercit\u00e9s - TER ", "service": "long_distance", "ref": "Intercit\u00e9s Bordeaux - Toulouse", "route": "train", "description": "Intercit\u00e9s Nantes - Toulouse", "operator": "SNCF", "line": "rail", "type": "route", "name": "Intercit\u00e9s Bordeaux - Langon - Agen - Toulouse"}}, "platforms": "6", "operator": "SNCF", "railway": "station"}}, {"geometry": {"type": "Point", "coordinates": [-0.6174132, 45.748918]}, "type": "Feature", "id": 368276184, "properties": {"railway": "station", "name": "Saintes", "lines_prop": {"406826": {"network": "Corail Intercit\u00e9s - TER ", "service": "long_distance", "ref": "Intercit\u00e9s Bordeaux - Toulouse", "route": "train", "description": "Intercit\u00e9s Nantes - Toulouse", "operator": "SNCF", "line": "rail", "type": "route", "name": "Intercit\u00e9s Bordeaux - Langon - Agen - Toulouse"}}}}, {"geometry": {"type": "Point", "coordinates": [1.445382, 43.6044765]}, "type": "Feature", "id": 248533209, "properties": {"name": "Capitole", "name:oc": "Capit\u00f2li", "man_made": "surveillance", "lines_prop": {"179515": {"ref": "A", "from": "Balma Gramont", "name": "M\u00e9tro Ligne A Direction Basso Cambo", "color": "#E40F1F", "opening_hours": "Mo-Th 05:15-24:00; Fr-Sa 05:15-24:00, 00:00-01:00; Su 05:15-24:00", "route": "subway", "to": "Basso Cambo", "operator": "Tiss\u00e9o", "type": "route", "wheelchair": "yes", "network": "fr_tisseo"}, "1557126": {"ref": "A", "from": "Basso Cambo", "name": "M\u00e9tro Ligne A Direction Balma Gramont", "color": "#E40F1F", "opening_hours": "Mo-Th 05:15-24:00; Fr-Sa 05:15-24:00, 00:00-01:00; Su 05:15-24:00", "route": "subway", "to": "Balma Gramont", "operator": "Tiss\u00e9o", "type": "route", "wheelchair": "yes", "network": "fr_tisseo"}}, "public_transport": "stop_position", "operator": "Tiss\u00e9o", "railway": "station", "subway": "yes"}}, {"geometry": {"type": "Point", "coordinates": [-0.6776856, 45.8759476]}, "type": "Feature", "id": 1967425755, "properties": {"railway": "station"}}, {"geometry": {"type": "Point", "coordinates": [-0.2556879, 44.5555788]}, "type": "Feature", "id": 232355551, "properties": {"railway": "station", "uic_ref": "8700209", "name": "Langon"}}, {"geometry": {"type": "Point", "coordinates": [0.39054, 44.250443]}, "type": "Feature", "id": 232372449, "properties": {"railway": "station", "uic_ref": "8758610", "name": "Port-Sainte-Marie"}}, {"geometry": {"type": "Point", "coordinates": [-0.4591368, 44.9730066]}, "type": "Feature", "id": 710657770, "properties": {"operator": "SNCF", "railway": "station", "name": "Cubzac-les-Ponts"}}, {"geometry": {"type": "Point", "coordinates": [1.4645122, 43.5680852]}, "type": "Feature", "id": 231747822, "properties": {"name": "Facult\u00e9 de Pharmacie", "man_made": "surveillance", "lines_prop": {"179514": {"ref": "B", "from": "Borderouge", "network": "fr_tisseo", "color": "#FFD900", "opening_hours": "Mo-Th 05:15-24:00; Fr-Sa 05:15-24:00, 00:00-01:00; Su 05:15-24:00", "route": "subway", "description": "Borderouge - Ramonville", "to": "Ramonville", "operator": "Tiss\u00e9o", "type": "route", "wheelchair": "yes", "name": "M\u00e9tro Ligne B Direction Ramonville"}, "1557171": {"ref": "B", "from": "Ramonville", "name": "M\u00e9tro Ligne B Direction Borderouge", "color": "#FFD900", "opening_hours": "Mo-Th 05:15-24:00; Fr-Sa 05:15-24:00, 00:00-01:00; Su 05:15-24:00", "route": "subway", "to": "Borderouge", "operator": "Tiss\u00e9o", "type": "route", "wheelchair": "yes", "network": "fr_tisseo"}}, "public_transport": "stop_position", "operator": "Tiss\u00e9o", "railway": "station", "subway": "yes"}}, {"geometry": {"type": "Point", "coordinates": [-1.4957336, 47.1904756]}, "type": "Feature", "id": 493205744, "properties": {"wheelchair": "yes", "uic_ref": "8735459", "railway": "station", "name": "Saint-S\u00e9bastien Fr\u00eane Rond"}}, {"geometry": {"type": "Point", "coordinates": [-1.1674352, 46.4637996]}, "type": "Feature", "id": 954958065, "properties": {"railway": "station", "name": "Lu\u00e7on"}}, {"geometry": {"type": "Point", "coordinates": [-1.1454572, 46.1525058]}, "type": "Feature", "id": 249334516, "properties": {"wheelchair": "limited", "lines_prop": {"406826": {"network": "Corail Intercit\u00e9s - TER ", "service": "long_distance", "ref": "Intercit\u00e9s Bordeaux - Toulouse", "route": "train", "description": "Intercit\u00e9s Nantes - Toulouse", "operator": "SNCF", "line": "rail", "type": "route", "name": "Intercit\u00e9s Bordeaux - Langon - Agen - Toulouse"}}, "railway": "station", "name": "La Rochelle"}}, {"geometry": {"type": "Point", "coordinates": [1.4618757, 43.5747853]}, "type": "Feature", "id": 231747830, "properties": {"name": "Rangueil", "bus": "yes", "man_made": "surveillance", "lines_prop": {"179514": {"ref": "B", "from": "Borderouge", "network": "fr_tisseo", "color": "#FFD900", "opening_hours": "Mo-Th 05:15-24:00; Fr-Sa 05:15-24:00, 00:00-01:00; Su 05:15-24:00", "route": "subway", "description": "Borderouge - Ramonville", "to": "Ramonville", "operator": "Tiss\u00e9o", "type": "route", "wheelchair": "yes", "name": "M\u00e9tro Ligne B Direction Ramonville"}, "1557171": {"ref": "B", "from": "Ramonville", "name": "M\u00e9tro Ligne B Direction Borderouge", "color": "#FFD900", "opening_hours": "Mo-Th 05:15-24:00; Fr-Sa 05:15-24:00, 00:00-01:00; Su 05:15-24:00", "route": "subway", "to": "Borderouge", "operator": "Tiss\u00e9o", "type": "route", "wheelchair": "yes", "network": "fr_tisseo"}}, "public_transport": "stop_position", "operator": "Tiss\u00e9o", "railway": "station", "subway": "yes"}}, {"geometry": {"type": "Point", "coordinates": [1.4354732, 43.6336184]}, "type": "Feature", "id": 231716601, "properties": {"name": "La Vache", "bus": "yes", "wheelchair": "yes", "man_made": "surveillance", "lines_prop": {"179514": {"ref": "B", "from": "Borderouge", "network": "fr_tisseo", "color": "#FFD900", "opening_hours": "Mo-Th 05:15-24:00; Fr-Sa 05:15-24:00, 00:00-01:00; Su 05:15-24:00", "route": "subway", "description": "Borderouge - Ramonville", "to": "Ramonville", "operator": "Tiss\u00e9o", "type": "route", "wheelchair": "yes", "name": "M\u00e9tro Ligne B Direction Ramonville"}, "1557171": {"ref": "B", "from": "Ramonville", "name": "M\u00e9tro Ligne B Direction Borderouge", "color": "#FFD900", "opening_hours": "Mo-Th 05:15-24:00; Fr-Sa 05:15-24:00, 00:00-01:00; Su 05:15-24:00", "route": "subway", "to": "Borderouge", "operator": "Tiss\u00e9o", "type": "route", "wheelchair": "yes", "network": "fr_tisseo"}}, "public_transport": "stop_position", "operator": "Tiss\u00e9o", "railway": "station", "subway": "yes"}}, {"geometry": {"type": "Point", "coordinates": [1.4441748, 43.6380363]}, "type": "Feature", "id": 231716610, "properties": {"name": "Trois Cocus", "bus": "yes", "man_made": "surveillance", "lines_prop": {"179514": {"ref": "B", "from": "Borderouge", "network": "fr_tisseo", "color": "#FFD900", "opening_hours": "Mo-Th 05:15-24:00; Fr-Sa 05:15-24:00, 00:00-01:00; Su 05:15-24:00", "route": "subway", "description": "Borderouge - Ramonville", "to": "Ramonville", "operator": "Tiss\u00e9o", "type": "route", "wheelchair": "yes", "name": "M\u00e9tro Ligne B Direction Ramonville"}, "1557171": {"ref": "B", "from": "Ramonville", "name": "M\u00e9tro Ligne B Direction Borderouge", "color": "#FFD900", "opening_hours": "Mo-Th 05:15-24:00; Fr-Sa 05:15-24:00, 00:00-01:00; Su 05:15-24:00", "route": "subway", "to": "Borderouge", "operator": "Tiss\u00e9o", "type": "route", "wheelchair": "yes", "network": "fr_tisseo"}}, "public_transport": "stop_position", "operator": "Tiss\u00e9o", "railway": "station", "subway": "yes"}}, {"geometry": {"type": "Point", "coordinates": [1.4592618, 43.5794652]}, "type": "Feature", "id": 231747846, "properties": {"name": "Saouzelong", "bus": "yes", "man_made": "surveillance", "lines_prop": {"179514": {"ref": "B", "from": "Borderouge", "network": "fr_tisseo", "color": "#FFD900", "opening_hours": "Mo-Th 05:15-24:00; Fr-Sa 05:15-24:00, 00:00-01:00; Su 05:15-24:00", "route": "subway", "description": "Borderouge - Ramonville", "to": "Ramonville", "operator": "Tiss\u00e9o", "type": "route", "wheelchair": "yes", "name": "M\u00e9tro Ligne B Direction Ramonville"}, "1557171": {"ref": "B", "from": "Ramonville", "name": "M\u00e9tro Ligne B Direction Borderouge", "color": "#FFD900", "opening_hours": "Mo-Th 05:15-24:00; Fr-Sa 05:15-24:00, 00:00-01:00; Su 05:15-24:00", "route": "subway", "to": "Borderouge", "operator": "Tiss\u00e9o", "type": "route", "wheelchair": "yes", "network": "fr_tisseo"}}, "public_transport": "stop_position", "operator": "Tiss\u00e9o", "railway": "station", "subway": "yes"}}, {"geometry": {"type": "Point", "coordinates": [1.3529559, 43.6025454]}, "type": "Feature", "id": 231888136, "properties": {"railway": "station", "name": "Les Ramassiers", "lines_prop": {"179516": {"from": "Ar\u00e8nes", "name": "Train Ligne C Direction Colomiers", "color": "#F1821A", "ref": "C", "route": "train", "to": "Colomiers", "operator": "SNCF", "type": "route", "network": "fr_tisseo"}, "1557095": {"from": "Colomiers", "name": "Train Ligne C Direction Ar\u00e8nes", "color": "#F1821A", "ref": "C", "route": "train", "to": "Ar\u00e8nes", "operator": "SNCF", "type": "route", "network": "fr_tisseo"}}}}, {"geometry": {"type": "Point", "coordinates": [1.3242829, 43.4649244]}, "type": "Feature", "id": 332711179, "properties": {"railway": "station", "name": "Muret", "lines_prop": {"1531520": {"operator": "SNCF", "ref": "D", "route": "train", "type": "route", "name": "Train Ligne D"}}}}, {"geometry": {"type": "Point", "coordinates": [0.620957, 44.2083427]}, "type": "Feature", "id": 232372492, "properties": {"railway": "station", "name": "Agen", "lines_prop": {"406826": {"network": "Corail Intercit\u00e9s - TER ", "service": "long_distance", "ref": "Intercit\u00e9s Bordeaux - Toulouse", "route": "train", "description": "Intercit\u00e9s Nantes - Toulouse", "operator": "SNCF", "line": "rail", "type": "route", "name": "Intercit\u00e9s Bordeaux - Langon - Agen - Toulouse"}}}}, {"geometry": {"type": "Point", "coordinates": [-0.3022296, 44.5783064]}, "type": "Feature", "id": 404669197, "properties": {"railway": "station", "uic_ref": "8704316", "name": "Preignac"}}, {"geometry": {"type": "Point", "coordinates": [-0.3407418, 44.6322039]}, "type": "Feature", "id": 355343630, "properties": {"railway": "station", "uic_ref": "8703006", "name": "C\u00e9rons"}}, {"geometry": {"type": "Point", "coordinates": [1.4498764, 43.580339]}, "type": "Feature", "id": 231747856, "properties": {"name": "Saint-Agne SNCF", "bus": "yes", "man_made": "surveillance", "lines_prop": {"179514": {"ref": "B", "from": "Borderouge", "network": "fr_tisseo", "color": "#FFD900", "opening_hours": "Mo-Th 05:15-24:00; Fr-Sa 05:15-24:00, 00:00-01:00; Su 05:15-24:00", "route": "subway", "description": "Borderouge - Ramonville", "to": "Ramonville", "operator": "Tiss\u00e9o", "type": "route", "wheelchair": "yes", "name": "M\u00e9tro Ligne B Direction Ramonville"}, "1557171": {"ref": "B", "from": "Ramonville", "name": "M\u00e9tro Ligne B Direction Borderouge", "color": "#FFD900", "opening_hours": "Mo-Th 05:15-24:00; Fr-Sa 05:15-24:00, 00:00-01:00; Su 05:15-24:00", "route": "subway", "to": "Borderouge", "operator": "Tiss\u00e9o", "type": "route", "wheelchair": "yes", "network": "fr_tisseo"}}, "train": "yes", "public_transport": "stop_position", "operator": "Tiss\u00e9o", "railway": "station", "subway": "yes"}}, {"geometry": {"type": "Point", "coordinates": [1.4178438, 43.5939653]}, "type": "Feature", "id": 57202449, "properties": {"railway": "station", "name": "Ar\u00e8nes (SNCF)", "lines_prop": {"179516": {"from": "Ar\u00e8nes", "name": "Train Ligne C Direction Colomiers", "color": "#F1821A", "ref": "C", "route": "train", "to": "Colomiers", "operator": "SNCF", "type": "route", "network": "fr_tisseo"}, "1557095": {"from": "Colomiers", "name": "Train Ligne C Direction Ar\u00e8nes", "color": "#F1821A", "ref": "C", "route": "train", "to": "Ar\u00e8nes", "operator": "SNCF", "type": "route", "network": "fr_tisseo"}}}}, {"geometry": {"type": "Point", "coordinates": [1.4439146, 43.6001467]}, "type": "Feature", "id": 248533272, "properties": {"name": "Esquirol", "bus": "yes", "man_made": "surveillance", "lines_prop": {"179515": {"ref": "A", "from": "Balma Gramont", "name": "M\u00e9tro Ligne A Direction Basso Cambo", "color": "#E40F1F", "opening_hours": "Mo-Th 05:15-24:00; Fr-Sa 05:15-24:00, 00:00-01:00; Su 05:15-24:00", "route": "subway", "to": "Basso Cambo", "operator": "Tiss\u00e9o", "type": "route", "wheelchair": "yes", "network": "fr_tisseo"}, "1557126": {"ref": "A", "from": "Basso Cambo", "name": "M\u00e9tro Ligne A Direction Balma Gramont", "color": "#E40F1F", "opening_hours": "Mo-Th 05:15-24:00; Fr-Sa 05:15-24:00, 00:00-01:00; Su 05:15-24:00", "route": "subway", "to": "Balma Gramont", "operator": "Tiss\u00e9o", "type": "route", "wheelchair": "yes", "network": "fr_tisseo"}}, "public_transport": "stop_position", "operator": "Tiss\u00e9o", "railway": "station", "subway": "yes"}}, {"geometry": {"type": "Point", "coordinates": [-0.5558476, 44.8263911]}, "type": "Feature", "id": 279637273, "properties": {"uic_ref": "8700047", "name": "Bordeaux Saint-Jean", "wheelchair": "yes", "rail": "yes", "lines_prop": {"406826": {"network": "Corail Intercit\u00e9s - TER ", "service": "long_distance", "ref": "Intercit\u00e9s Bordeaux - Toulouse", "route": "train", "description": "Intercit\u00e9s Nantes - Toulouse", "operator": "SNCF", "line": "rail", "type": "route", "name": "Intercit\u00e9s Bordeaux - Langon - Agen - Toulouse"}}, "public_transport": "stop_position", "railway": "station"}}, {"geometry": {"type": "Point", "coordinates": [1.4184416, 43.5934558]}, "type": "Feature", "id": 248533275, "properties": {"name": "Ar\u00e8nes", "name:oc": "Arenos", "bus": "yes", "man_made": "surveillance", "lines_prop": {"179515": {"ref": "A", "from": "Balma Gramont", "name": "M\u00e9tro Ligne A Direction Basso Cambo", "color": "#E40F1F", "opening_hours": "Mo-Th 05:15-24:00; Fr-Sa 05:15-24:00, 00:00-01:00; Su 05:15-24:00", "route": "subway", "to": "Basso Cambo", "operator": "Tiss\u00e9o", "type": "route", "wheelchair": "yes", "network": "fr_tisseo"}, "1557126": {"ref": "A", "from": "Basso Cambo", "name": "M\u00e9tro Ligne A Direction Balma Gramont", "color": "#E40F1F", "opening_hours": "Mo-Th 05:15-24:00; Fr-Sa 05:15-24:00, 00:00-01:00; Su 05:15-24:00", "route": "subway", "to": "Balma Gramont", "operator": "Tiss\u00e9o", "type": "route", "wheelchair": "yes", "network": "fr_tisseo"}}, "tram": "yes", "train": "yes", "public_transport": "stop_position", "operator": "Tiss\u00e9o", "railway": "station", "subway": "yes"}}, {"geometry": {"type": "Point", "coordinates": [1.442089, 43.5798541]}, "type": "Feature", "id": 231747882, "properties": {"name": "Empalot", "bus": "yes", "man_made": "surveillance", "search_name": "Empalot M\u00e9tro", "lines_prop": {"179514": {"ref": "B", "from": "Borderouge", "network": "fr_tisseo", "color": "#FFD900", "opening_hours": "Mo-Th 05:15-24:00; Fr-Sa 05:15-24:00, 00:00-01:00; Su 05:15-24:00", "route": "subway", "description": "Borderouge - Ramonville", "to": "Ramonville", "operator": "Tiss\u00e9o", "type": "route", "wheelchair": "yes", "name": "M\u00e9tro Ligne B Direction Ramonville"}, "1557171": {"ref": "B", "from": "Ramonville", "name": "M\u00e9tro Ligne B Direction Borderouge", "color": "#FFD900", "opening_hours": "Mo-Th 05:15-24:00; Fr-Sa 05:15-24:00, 00:00-01:00; Su 05:15-24:00", "route": "subway", "to": "Borderouge", "operator": "Tiss\u00e9o", "type": "route", "wheelchair": "yes", "network": "fr_tisseo"}}, "public_transport": "stop_position", "operator": "Tiss\u00e9o", "railway": "station", "subway": "yes"}}, {"geometry": {"type": "Point", "coordinates": [1.4522992, 43.6003579]}, "type": "Feature", "id": 314565429, "properties": {"name": "Fran\u00e7ois Verdier", "bus": "yes", "man_made": "surveillance", "lines_prop": {"179514": {"ref": "B", "from": "Borderouge", "network": "fr_tisseo", "color": "#FFD900", "opening_hours": "Mo-Th 05:15-24:00; Fr-Sa 05:15-24:00, 00:00-01:00; Su 05:15-24:00", "route": "subway", "description": "Borderouge - Ramonville", "to": "Ramonville", "operator": "Tiss\u00e9o", "type": "route", "wheelchair": "yes", "name": "M\u00e9tro Ligne B Direction Ramonville"}, "1557171": {"ref": "B", "from": "Ramonville", "name": "M\u00e9tro Ligne B Direction Borderouge", "color": "#FFD900", "opening_hours": "Mo-Th 05:15-24:00; Fr-Sa 05:15-24:00, 00:00-01:00; Su 05:15-24:00", "route": "subway", "to": "Borderouge", "operator": "Tiss\u00e9o", "type": "route", "wheelchair": "yes", "network": "fr_tisseo"}}, "public_transport": "stop_position", "operator": "Tiss\u00e9o", "railway": "station", "subway": "yes"}}, {"geometry": {"type": "Point", "coordinates": [-0.4939415, 44.8978259]}, "type": "Feature", "id": 607253308, "properties": {"railway": "station", "name": "Sainte-Eulalie - Carbon-Blanc"}}, {"geometry": {"type": "Point", "coordinates": [-0.3205841, 44.6040161]}, "type": "Feature", "id": 364649278, "properties": {"railway": "station", "uic_ref": "8702776", "name": "Barsac"}}, {"geometry": {"type": "Point", "coordinates": [1.4285517, 43.645948]}, "type": "Feature", "id": 229250367, "properties": {"railway": "station", "name": "Lalande-\u00c9glise"}}, {"geometry": {"type": "Point", "coordinates": [1.4502817, 43.5796338]}, "type": "Feature", "id": 357215046, "properties": {"name": "Saint-Agne", "lines_prop": {"1531520": {"operator": "SNCF", "ref": "D", "route": "train", "type": "route", "name": "Train Ligne D"}}, "source": "cadastre-dgi-fr source : Direction G\u00e9n\u00e9rale des Imp\u00f4ts - Cadastre. Mise \u00e0 jour : 2009", "train": "yes", "public_transport": "stop_position", "operator": "SNCF", "railway": "station"}}, {"geometry": {"type": "Point", "coordinates": [0.729415, 43.1049961]}, "type": "Feature", "id": 287160653, "properties": {"railway": "station", "name": "Saint-Gaudens"}}, {"geometry": {"type": "Point", "coordinates": [1.3718548, 43.5997881]}, "type": "Feature", "id": 231873359, "properties": {"railway": "station", "name": "Saint-Martin du touch", "lines_prop": {"179516": {"from": "Ar\u00e8nes", "name": "Train Ligne C Direction Colomiers", "color": "#F1821A", "ref": "C", "route": "train", "to": "Colomiers", "operator": "SNCF", "type": "route", "network": "fr_tisseo"}, "1557095": {"from": "Colomiers", "name": "Train Ligne C Direction Ar\u00e8nes", "color": "#F1821A", "ref": "C", "route": "train", "to": "Ar\u00e8nes", "operator": "SNCF", "type": "route", "network": "fr_tisseo"}}}}, {"geometry": {"type": "Point", "coordinates": [1.4470932, 43.5861145]}, "type": "Feature", "id": 314948432, "properties": {"name": "Saint-Michel - Marcel Langer", "man_made": "surveillance", "lines_prop": {"179514": {"ref": "B", "from": "Borderouge", "network": "fr_tisseo", "color": "#FFD900", "opening_hours": "Mo-Th 05:15-24:00; Fr-Sa 05:15-24:00, 00:00-01:00; Su 05:15-24:00", "route": "subway", "description": "Borderouge - Ramonville", "to": "Ramonville", "operator": "Tiss\u00e9o", "type": "route", "wheelchair": "yes", "name": "M\u00e9tro Ligne B Direction Ramonville"}, "1557171": {"ref": "B", "from": "Ramonville", "name": "M\u00e9tro Ligne B Direction Borderouge", "color": "#FFD900", "opening_hours": "Mo-Th 05:15-24:00; Fr-Sa 05:15-24:00, 00:00-01:00; Su 05:15-24:00", "route": "subway", "to": "Borderouge", "operator": "Tiss\u00e9o", "type": "route", "wheelchair": "yes", "network": "fr_tisseo"}}, "public_transport": "stop_position", "operator": "Tiss\u00e9o", "railway": "station", "subway": "yes"}}, {"geometry": {"type": "Point", "coordinates": [1.433763, 43.6153706]}, "type": "Feature", "id": 286356305, "properties": {"name": "Canal du Midi", "bus": "yes", "man_made": "surveillance", "lines_prop": {"179514": {"ref": "B", "from": "Borderouge", "network": "fr_tisseo", "color": "#FFD900", "opening_hours": "Mo-Th 05:15-24:00; Fr-Sa 05:15-24:00, 00:00-01:00; Su 05:15-24:00", "route": "subway", "description": "Borderouge - Ramonville", "to": "Ramonville", "operator": "Tiss\u00e9o", "type": "route", "wheelchair": "yes", "name": "M\u00e9tro Ligne B Direction Ramonville"}, "1557171": {"ref": "B", "from": "Ramonville", "name": "M\u00e9tro Ligne B Direction Borderouge", "color": "#FFD900", "opening_hours": "Mo-Th 05:15-24:00; Fr-Sa 05:15-24:00, 00:00-01:00; Su 05:15-24:00", "route": "subway", "to": "Borderouge", "operator": "Tiss\u00e9o", "type": "route", "wheelchair": "yes", "network": "fr_tisseo"}}, "public_transport": "stop_position", "operator": "Tiss\u00e9o", "railway": "station", "subway": "yes"}}, {"geometry": {"type": "Point", "coordinates": [1.4315855, 43.5979845]}, "type": "Feature", "id": 250291540, "properties": {"name": "Saint-Cyprien R\u00e9publique", "name:oc": "San Subra Republico", "bus": "yes", "man_made": "surveillance", "lines_prop": {"179515": {"ref": "A", "from": "Balma Gramont", "name": "M\u00e9tro Ligne A Direction Basso Cambo", "color": "#E40F1F", "opening_hours": "Mo-Th 05:15-24:00; Fr-Sa 05:15-24:00, 00:00-01:00; Su 05:15-24:00", "route": "subway", "to": "Basso Cambo", "operator": "Tiss\u00e9o", "type": "route", "wheelchair": "yes", "network": "fr_tisseo"}, "1557126": {"ref": "A", "from": "Basso Cambo", "name": "M\u00e9tro Ligne A Direction Balma Gramont", "color": "#E40F1F", "opening_hours": "Mo-Th 05:15-24:00; Fr-Sa 05:15-24:00, 00:00-01:00; Su 05:15-24:00", "route": "subway", "to": "Balma Gramont", "operator": "Tiss\u00e9o", "type": "route", "wheelchair": "yes", "network": "fr_tisseo"}}, "public_transport": "stop_position", "operator": "Tiss\u00e9o", "railway": "station", "subway": "yes"}}, {"geometry": {"type": "Point", "coordinates": [1.4454502, 43.5977639]}, "type": "Feature", "id": 231747929, "properties": {"name": "Carmes", "bus": "yes", "man_made": "surveillance", "lines_prop": {"179514": {"ref": "B", "from": "Borderouge", "network": "fr_tisseo", "color": "#FFD900", "opening_hours": "Mo-Th 05:15-24:00; Fr-Sa 05:15-24:00, 00:00-01:00; Su 05:15-24:00", "route": "subway", "description": "Borderouge - Ramonville", "to": "Ramonville", "operator": "Tiss\u00e9o", "type": "route", "wheelchair": "yes", "name": "M\u00e9tro Ligne B Direction Ramonville"}, "1557171": {"ref": "B", "from": "Ramonville", "name": "M\u00e9tro Ligne B Direction Borderouge", "color": "#FFD900", "opening_hours": "Mo-Th 05:15-24:00; Fr-Sa 05:15-24:00, 00:00-01:00; Su 05:15-24:00", "route": "subway", "to": "Borderouge", "operator": "Tiss\u00e9o", "type": "route", "wheelchair": "yes", "network": "fr_tisseo"}}, "public_transport": "stop_position", "operator": "Tiss\u00e9o", "railway": "station", "subway": "yes"}}, {"geometry": {"type": "Point", "coordinates": [-1.3468031, 47.14388]}, "type": "Feature", "id": 1536657551, "properties": {"railway": "station", "uic_ref": "8748142", "name": "Le Pallet"}}, {"geometry": {"type": "Point", "coordinates": [1.3023257, 43.8269682]}, "type": "Feature", "id": 629060965, "properties": {"source": "cadastre-dgi-fr source : Direction G\u00e9n\u00e9rale des Imp\u00f4ts - Cadastre ; mise \u00e0 jour : 2010", "railway": "station", "name": "Grisolles"}}, {"geometry": {"type": "Point", "coordinates": [1.4358405, 43.6108819]}, "type": "Feature", "id": 231709544, "properties": {"name": "Compans Caffarelli", "bus": "yes", "man_made": "surveillance", "lines_prop": {"179514": {"ref": "B", "from": "Borderouge", "network": "fr_tisseo", "color": "#FFD900", "opening_hours": "Mo-Th 05:15-24:00; Fr-Sa 05:15-24:00, 00:00-01:00; Su 05:15-24:00", "route": "subway", "description": "Borderouge - Ramonville", "to": "Ramonville", "operator": "Tiss\u00e9o", "type": "route", "wheelchair": "yes", "name": "M\u00e9tro Ligne B Direction Ramonville"}, "1557171": {"ref": "B", "from": "Ramonville", "name": "M\u00e9tro Ligne B Direction Borderouge", "color": "#FFD900", "opening_hours": "Mo-Th 05:15-24:00; Fr-Sa 05:15-24:00, 00:00-01:00; Su 05:15-24:00", "route": "subway", "to": "Borderouge", "operator": "Tiss\u00e9o", "type": "route", "wheelchair": "yes", "network": "fr_tisseo"}}, "public_transport": "stop_position", "operator": "Tiss\u00e9o", "railway": "station", "subway": "yes"}}, {"geometry": {"type": "Point", "coordinates": [0.9723901, 43.179819]}, "type": "Feature", "id": 287160681, "properties": {"railway": "station", "name": "Boussens"}}, {"geometry": {"type": "Point", "coordinates": [1.4456659, 43.6086238]}, "type": "Feature", "id": 314563949, "properties": {"name": "Jeanne d'Arc", "bus": "yes", "man_made": "surveillance", "lines_prop": {"179514": {"ref": "B", "from": "Borderouge", "network": "fr_tisseo", "color": "#FFD900", "opening_hours": "Mo-Th 05:15-24:00; Fr-Sa 05:15-24:00, 00:00-01:00; Su 05:15-24:00", "route": "subway", "description": "Borderouge - Ramonville", "to": "Ramonville", "operator": "Tiss\u00e9o", "type": "route", "wheelchair": "yes", "name": "M\u00e9tro Ligne B Direction Ramonville"}, "1557171": {"ref": "B", "from": "Ramonville", "name": "M\u00e9tro Ligne B Direction Borderouge", "color": "#FFD900", "opening_hours": "Mo-Th 05:15-24:00; Fr-Sa 05:15-24:00, 00:00-01:00; Su 05:15-24:00", "route": "subway", "to": "Borderouge", "operator": "Tiss\u00e9o", "type": "route", "wheelchair": "yes", "network": "fr_tisseo"}}, "public_transport": "stop_position", "operator": "Tiss\u00e9o", "railway": "station", "subway": "yes"}}, {"geometry": {"type": "Point", "coordinates": [1.4768303, 43.6243703]}, "type": "Feature", "id": 333113201, "properties": {"name": "Argoulets", "bus": "yes", "man_made": "surveillance", "lines_prop": {"179515": {"ref": "A", "from": "Balma Gramont", "name": "M\u00e9tro Ligne A Direction Basso Cambo", "color": "#E40F1F", "opening_hours": "Mo-Th 05:15-24:00; Fr-Sa 05:15-24:00, 00:00-01:00; Su 05:15-24:00", "route": "subway", "to": "Basso Cambo", "operator": "Tiss\u00e9o", "type": "route", "wheelchair": "yes", "network": "fr_tisseo"}, "1557126": {"ref": "A", "from": "Basso Cambo", "name": "M\u00e9tro Ligne A Direction Balma Gramont", "color": "#E40F1F", "opening_hours": "Mo-Th 05:15-24:00; Fr-Sa 05:15-24:00, 00:00-01:00; Su 05:15-24:00", "route": "subway", "to": "Balma Gramont", "operator": "Tiss\u00e9o", "type": "route", "wheelchair": "yes", "network": "fr_tisseo"}}, "public_transport": "stop_position", "operator": "Tiss\u00e9o", "railway": "station", "subway": "yes"}}, {"geometry": {"type": "Point", "coordinates": [1.0830629, 43.2129448]}, "type": "Feature", "id": 287160693, "properties": {"railway": "station", "name": "Caz\u00e8res"}}, {"geometry": {"type": "Point", "coordinates": [1.4356959, 43.6204016]}, "type": "Feature", "id": 231709562, "properties": {"name": "Minimes - Claude Nougaro", "bus": "yes", "man_made": "surveillance", "search_name": "Minimes Claude Nougaro", "lines_prop": {"179514": {"ref": "B", "from": "Borderouge", "network": "fr_tisseo", "color": "#FFD900", "opening_hours": "Mo-Th 05:15-24:00; Fr-Sa 05:15-24:00, 00:00-01:00; Su 05:15-24:00", "route": "subway", "description": "Borderouge - Ramonville", "to": "Ramonville", "operator": "Tiss\u00e9o", "type": "route", "wheelchair": "yes", "name": "M\u00e9tro Ligne B Direction Ramonville"}, "1557171": {"ref": "B", "from": "Ramonville", "name": "M\u00e9tro Ligne B Direction Borderouge", "color": "#FFD900", "opening_hours": "Mo-Th 05:15-24:00; Fr-Sa 05:15-24:00, 00:00-01:00; Su 05:15-24:00", "route": "subway", "to": "Borderouge", "operator": "Tiss\u00e9o", "type": "route", "wheelchair": "yes", "network": "fr_tisseo"}}, "public_transport": "stop_position", "operator": "Tiss\u00e9o", "railway": "station", "subway": "yes"}}, {"geometry": {"type": "Point", "coordinates": [-1.5109766, 47.2068637]}, "type": "Feature", "id": 493201280, "properties": {"wheelchair": "yes", "uic_ref": "8735458", "railway": "station", "name": "Pas Enchant\u00e9s"}}, {"geometry": {"type": "Point", "coordinates": [1.4184064, 43.5875317]}, "type": "Feature", "id": 248533388, "properties": {"name": "Fontaine Lestang", "name:oc": "Font-Lestang", "bus": "yes", "man_made": "surveillance", "lines_prop": {"179515": {"ref": "A", "from": "Balma Gramont", "name": "M\u00e9tro Ligne A Direction Basso Cambo", "color": "#E40F1F", "opening_hours": "Mo-Th 05:15-24:00; Fr-Sa 05:15-24:00, 00:00-01:00; Su 05:15-24:00", "route": "subway", "to": "Basso Cambo", "operator": "Tiss\u00e9o", "type": "route", "wheelchair": "yes", "network": "fr_tisseo"}, "1557126": {"ref": "A", "from": "Basso Cambo", "name": "M\u00e9tro Ligne A Direction Balma Gramont", "color": "#E40F1F", "opening_hours": "Mo-Th 05:15-24:00; Fr-Sa 05:15-24:00, 00:00-01:00; Su 05:15-24:00", "route": "subway", "to": "Balma Gramont", "operator": "Tiss\u00e9o", "type": "route", "wheelchair": "yes", "network": "fr_tisseo"}}, "public_transport": "stop_position", "operator": "Tiss\u00e9o", "railway": "station", "subway": "yes"}}, {"geometry": {"type": "Point", "coordinates": [1.3339281, 43.6035353]}, "type": "Feature", "id": 333707078, "properties": {"railway": "station", "name": "Colomiers Gare", "lines_prop": {"179516": {"from": "Ar\u00e8nes", "name": "Train Ligne C Direction Colomiers", "color": "#F1821A", "ref": "C", "route": "train", "to": "Colomiers", "operator": "SNCF", "type": "route", "network": "fr_tisseo"}, "1557095": {"from": "Colomiers", "name": "Train Ligne C Direction Ar\u00e8nes", "color": "#F1821A", "ref": "C", "route": "train", "to": "Ar\u00e8nes", "operator": "SNCF", "type": "route", "network": "fr_tisseo"}}}}, {"geometry": {"type": "Point", "coordinates": [1.3922839, 43.569943]}, "type": "Feature", "id": 53954482, "properties": {"name": "Basso Cambo", "bus": "yes", "man_made": "surveillance", "lines_prop": {"179515": {"ref": "A", "from": "Balma Gramont", "name": "M\u00e9tro Ligne A Direction Basso Cambo", "color": "#E40F1F", "opening_hours": "Mo-Th 05:15-24:00; Fr-Sa 05:15-24:00, 00:00-01:00; Su 05:15-24:00", "route": "subway", "to": "Basso Cambo", "operator": "Tiss\u00e9o", "type": "route", "wheelchair": "yes", "network": "fr_tisseo"}, "1557126": {"ref": "A", "from": "Basso Cambo", "name": "M\u00e9tro Ligne A Direction Balma Gramont", "color": "#E40F1F", "opening_hours": "Mo-Th 05:15-24:00; Fr-Sa 05:15-24:00, 00:00-01:00; Su 05:15-24:00", "route": "subway", "to": "Balma Gramont", "operator": "Tiss\u00e9o", "type": "route", "wheelchair": "yes", "network": "fr_tisseo"}}, "public_transport": "stop_position", "operator": "Tiss\u00e9o", "railway": "station", "subway": "yes"}}, {"geometry": {"type": "Point", "coordinates": [1.4550373, 43.6107605]}, "type": "Feature", "id": 286474709, "properties": {"name": "Marengo SNCF", "bus": "yes", "man_made": "surveillance", "lines_prop": {"179515": {"ref": "A", "from": "Balma Gramont", "name": "M\u00e9tro Ligne A Direction Basso Cambo", "color": "#E40F1F", "opening_hours": "Mo-Th 05:15-24:00; Fr-Sa 05:15-24:00, 00:00-01:00; Su 05:15-24:00", "route": "subway", "to": "Basso Cambo", "operator": "Tiss\u00e9o", "type": "route", "wheelchair": "yes", "network": "fr_tisseo"}, "1557126": {"ref": "A", "from": "Basso Cambo", "name": "M\u00e9tro Ligne A Direction Balma Gramont", "color": "#E40F1F", "opening_hours": "Mo-Th 05:15-24:00; Fr-Sa 05:15-24:00, 00:00-01:00; Su 05:15-24:00", "route": "subway", "to": "Balma Gramont", "operator": "Tiss\u00e9o", "type": "route", "wheelchair": "yes", "network": "fr_tisseo"}}, "train": "yes", "public_transport": "stop_position", "operator": "Tiss\u00e9o", "railway": "station", "subway": "yes"}}, {"geometry": {"type": "Point", "coordinates": [1.4014355, 43.5955754]}, "type": "Feature", "id": 54544342, "properties": {"railway": "station", "name": "TOEC", "lines_prop": {"179516": {"from": "Ar\u00e8nes", "name": "Train Ligne C Direction Colomiers", "color": "#F1821A", "ref": "C", "route": "train", "to": "Colomiers", "operator": "SNCF", "type": "route", "network": "fr_tisseo"}, "1557095": {"from": "Colomiers", "name": "Train Ligne C Direction Ar\u00e8nes", "color": "#F1821A", "ref": "C", "route": "train", "to": "Ar\u00e8nes", "operator": "SNCF", "type": "route", "network": "fr_tisseo"}}}}, {"geometry": {"type": "Point", "coordinates": [1.016795, 43.1961358]}, "type": "Feature", "id": 502535127, "properties": {"railway": "station", "name": "Martres-Tolosane"}}, {"geometry": {"type": "Point", "coordinates": [1.4018908, 43.5708457]}, "type": "Feature", "id": 248533979, "properties": {"name": "Reynerie", "man_made": "surveillance", "lines_prop": {"179515": {"ref": "A", "from": "Balma Gramont", "name": "M\u00e9tro Ligne A Direction Basso Cambo", "color": "#E40F1F", "opening_hours": "Mo-Th 05:15-24:00; Fr-Sa 05:15-24:00, 00:00-01:00; Su 05:15-24:00", "route": "subway", "to": "Basso Cambo", "operator": "Tiss\u00e9o", "type": "route", "wheelchair": "yes", "network": "fr_tisseo"}, "1557126": {"ref": "A", "from": "Basso Cambo", "name": "M\u00e9tro Ligne A Direction Balma Gramont", "color": "#E40F1F", "opening_hours": "Mo-Th 05:15-24:00; Fr-Sa 05:15-24:00, 00:00-01:00; Su 05:15-24:00", "route": "subway", "to": "Balma Gramont", "operator": "Tiss\u00e9o", "type": "route", "wheelchair": "yes", "network": "fr_tisseo"}}, "public_transport": "stop_position", "operator": "Tiss\u00e9o", "railway": "station", "subway": "yes"}}, {"geometry": {"type": "Point", "coordinates": [1.4338226, 43.6267764]}, "type": "Feature", "id": 286356966, "properties": {"name": "Barri\u00e8re de Paris", "bus": "yes", "man_made": "surveillance", "lines_prop": {"179514": {"ref": "B", "from": "Borderouge", "network": "fr_tisseo", "color": "#FFD900", "opening_hours": "Mo-Th 05:15-24:00; Fr-Sa 05:15-24:00, 00:00-01:00; Su 05:15-24:00", "route": "subway", "description": "Borderouge - Ramonville", "to": "Ramonville", "operator": "Tiss\u00e9o", "type": "route", "wheelchair": "yes", "name": "M\u00e9tro Ligne B Direction Ramonville"}, "1557171": {"ref": "B", "from": "Ramonville", "name": "M\u00e9tro Ligne B Direction Borderouge", "color": "#FFD900", "opening_hours": "Mo-Th 05:15-24:00; Fr-Sa 05:15-24:00, 00:00-01:00; Su 05:15-24:00", "route": "subway", "to": "Borderouge", "operator": "Tiss\u00e9o", "type": "route", "wheelchair": "yes", "network": "fr_tisseo"}}, "public_transport": "stop_position", "operator": "Tiss\u00e9o", "railway": "station", "subway": "yes"}}, {"geometry": {"type": "Point", "coordinates": [-1.0909663, 46.078415]}, "type": "Feature", "id": 1002579435, "properties": {"railway": "station", "name": "Ch\u00e2telaillon"}}, {"geometry": {"type": "Point", "coordinates": [0.3868879, 43.1141868]}, "type": "Feature", "id": 314738156, "properties": {"railway": "station", "uic_ref": "87671123", "name": "Lannemezan"}}, {"geometry": {"type": "Point", "coordinates": [1.2125287, 43.2984007]}, "type": "Feature", "id": 247915502, "properties": {"railway": "station", "name": "Carbonne"}}, {"geometry": {"type": "Point", "coordinates": [-0.4403643, 44.9910179]}, "type": "Feature", "id": 1694887924, "properties": {"railway": "station", "name": "Gare de Saint-Andr\u00e9-de-Cubzac"}}, {"geometry": {"type": "Point", "coordinates": [0.5734241, 43.0779581]}, "type": "Feature", "id": 314738682, "properties": {"railway": "station", "name": "Montr\u00e9jeau - Gourdan-Polignan"}}, {"geometry": {"type": "Point", "coordinates": [-0.4415272, 45.438561]}, "type": "Feature", "id": 277022205, "properties": {"railway": "station", "name": "Jonzac", "lines_prop": {"406826": {"network": "Corail Intercit\u00e9s - TER ", "service": "long_distance", "ref": "Intercit\u00e9s Bordeaux - Toulouse", "route": "train", "description": "Intercit\u00e9s Nantes - Toulouse", "operator": "SNCF", "line": "rail", "type": "route", "name": "Intercit\u00e9s Bordeaux - Langon - Agen - Toulouse"}}}}]}